ï»¿Business,Street,City,State,Postcode,Country,Phone,Website,Email,Email Type,Categories,Description,Employees,Linkedin,Facebook,X,Instagram,Youtube,Lat,Lng,Contact First Name,Contact Last Name,Contact Role,Contact Email
180 Medical,4635 Southwest Fwy #800,Houston,TX,77027,United States,(713) 344-0901,https://www.180medical.com/,info@180medical.com,Catch-all,Medical supply store,"180 Medical is one of Americas fastest growing, nationally accredited providers of urologic catheter and ostomy supplies. 

180 Medical was named one of the Best Places to Work in Oklahoma again this year! 180 Medical continues to be a company that expresses as much care for its employees as it does its customers.",443,https://www.linkedin.com/company/180-medical,https://www.facebook.com/180medical,https://x.com/180medical,https://www.instagram.com/180medical,https://www.youtube.com/channel/UCyBjhY8uL3EDL72i-7FYZ-A,29.7290337,-95.4536397,Angela,Reese,"Director of Operations, Accreditation and Contracting",areese@180medical.com
A Disruptive Technologies Company.,4100 S Shepherd Dr D,Houston,TX,77098,United States,(713) 936-0988,https://endorxmedical.com/,info@endorxmedical.com,Valid,Medical equipment manufacturer,"The EndoRx team combines decades of clinical experience with medical device sales, marketing, and product development expertise. We evaluate projects based on business development potential and then develop a comprehensive strategy, including:
- Design
- Intellectual property
- Regulatory
- Market development customized to the exit goal
Let us show you how our unique process of evaluation and strategic planning can help to de-risk your project and increase the chance of a successful exit.",1,https://www.linkedin.com/company/endo-rx-medical,,,,,29.7296606,-95.4109251,,,,
Ace Medical Supply Inc,6500 North Fwy # 113,Houston,TX,77076,United States,(713) 694-0010,,,,"Medical supply store, Pharmacy",,,,,,,,29.8601189,-95.4014545,,,,
Airgas Store,4700 S Loop E,Houston,TX,77033,United States,(713) 738-2346,https://locations.airgas.com/tx/houston/airgas-store-c178.html,contato@airgas.com,Catch-all,"Medical equipment supplier, Gas cylinders supplier, Welding supply store, Medical supply store, Welding gas supplier","Airgas, an Air Liquide company, is a leading U.S. supplier of industrial, medical and specialty gases, as well as hardgoods and related products; one of the largest U.S. suppliers of safety products; and a leading U.S. supplier of ammonia products and process chemicals.","18,000",https://www.linkedin.com/company/airgas,https://www.facebook.com/airgasusa,https://www.x.com/airgas,https://www.instagram.com/airgas,https://www.youtube.com/channel/UCzsrLNYAZh7VzLUbgxLLrhw,29.6822928,-95.3498201,Kenneth,Guzman,Branch Manager,guzman.k@airgas.com
Aj Medical Manufacturing,16710 Hedgecroft Dr #100,Houston,TX,77060,United States,(844) 318-8784,https://ajmedusa.com/,info@ajmedusa.com,Valid,Manufacturer,"AJ Medical Manufacturing is an ISO 13485 and FDA registered contract manufacturer specializing in medical devices and components. Based in Houston, Texas, the company features a cutting-edge manufacturing facility that allows for an agile and vertically integrated manufacturing approach.",14,https://www.linkedin.com/company/aj-medical-manufacturing,,,,https://www.youtube.com/channel/UCJavNEOCXEwq1xWNjrV8Ahw,29.9421352,-95.3886582,Robert,Nazarifar,"Manager, Quality",r.nazarifar@ajmedusa.com
Alere,,Houston,TX,77002,United States,(713) 739-0288,,,,"Medical equipment manufacturer, Home health care service",,,,,,,,29.7525543,-95.3704013,,,,
"Amci Medical Imaging, Llc",1804 Weber St,Houston,TX,77007,United States,(713) 802-9868,https://www.amcimedical.com/,admin@amcimedical.com,Unknown,Medical supply store,"AMCI Medical Imaging specializes in remanufacturing and providing replacement parts for GE Healthcares AMX-4 Portable X-ray systems. They offer a range of products including circuit boards, major assemblies, and upgrade kits for various models of mobile X-ray systems.",12,,,,,,29.7774679,-95.3762652,,,,
Angel Medical Supply,5829 W Sam Houston Pkwy N #1209,Houston,TX,77041,United States,(713) 856-9930,https://www.angelmedicalsupply.com/,info@angelmedicalsupply.com,Valid,Medical supply store,"Angel Medical Supply specializes in providing home medical equipment, particularly respiratory equipment, delivered directly to patients&s; homes across the United States. The company is dedicated to understanding patients&s; respiratory needs and maintaining a comprehensive catalog of necessary equipment.",29,https://www.linkedin.com/company/angel-medical-supply,https://www.facebook.com/Angel-Medical-Supply-374923765948430,https://x.com/angelmedicalsup,,,29.8532459,-95.5659422,Kaitlin,Hernandez,Registered Respiratory Therapist,khernandez@angelmedicalsupply.com
Angelmed Ems,,Houston,TX,77284,United States,(832) 231-1051,,,,"Medical supply store, Diabetes equipment supplier, Oxygen equipment supplier",,,,,,,,29.76,-95.36,,,,
Apnix Cpap Equipment And Supplies,4003 Bellaire Blvd Suite F,Houston,TX,77025,United States,(713) 349-9767,https://www.apnix.com/,stevec@apnix.com,Valid,Medical equipment supplier,"Apnix Sleep Diagnostics has been Houstonâs sleep center for diagnostics and treatments of choice for more than 25,000 patients over the past 12 years. Our eight Houston area locations provide patients with resources to sleep diagnostics, sleep apnea testing, sleep treatments and snoring relief.",28,https://www.linkedin.com/company/apnix-sleep-diagnostics,https://www.facebook.com/apnixsleepdiagnostics,https://www.x.com/apnixsd,,,29.7048708,-95.4406191,Maidelin,Martinez,Customer Service Manager,maidelin@apnix.com
Arthritis Msm Supplements,2010 Louisiana St,Houston,TX,77002,United States,(832) 906-3539,,,,Medical supply store,,,,,,,,29.7507971,-95.3738326,,,,
B2 Medical Imaging,12 Greenway Plz #1100,Houston,TX,77046,United States,(281) 730-3674,https://b2medimaging.com/,,,Medical equipment supplier,"Led by a team with over a decade of experience in the outpatient imaging sector previously working for a market leading OEM, B2 Medical Imaging has developed a deep expertise in the complexities of imaging equipment. We are a reliable source for turn-key pre-owned/refurbished medical imaging equipment and service.",2,,,,,,29.7331395,-95.4356169,,,,
Baxter Medical,5631 Dorbrandt St,Houston,TX,77023,United States,(713) 691-5473,https://www.baxtermed.com/,info@baxtermed.com,Unknown,Medical supply store,Baxter Medical Equipment & Supplies,,,,,,,29.7196587,-95.3193586,,,,
"Biotex, Inc.",114 Holmes Rd,Houston,TX,77045,United States,(713) 741-0111,https://www.biotexmedical.com/,orders@biotexmedical.com,Valid,"Engineering consultant, Industrial design company, Medical equipment manufacturer, Research and product development, Software company","Biotex specializes in the development, launch, and manufacturing of medical and bio-technologies. We partner with entrepreneurs, start-ups, and established companies to bring concepts to life with our full spectrum of medical device development and manufacturing.",75,https://www.linkedin.com/company/biotex-inc,,,,,29.6539703,-95.4400633,Keeler,Gonzales,Product Development Engineer,keeler.gonzales@biotexmedical.com
Careflex Supplies,2000 Crawford St,Houston,TX,77002,United States,(646) 410-7271,https://careflexsupplies.com/,,,Medical supply store,"At Careflex Supplies, we specialize in high-quality orthopedic braces designed for real-life recovery and comfort. Every product we offer...",,,,,,,29.7459758,-95.3661729,,,,
Complete Medical Supply,1732 W 18th St,Houston,TX,77008,United States,(713) 880-4000,https://www.completemedicalsupply.net/,zain@completemedicalsupply.net,Valid,"Medical supply store, Hospital equipment and supplies, Oxygen equipment supplier, Wheelchair store",Complete Medical Supply is here for all your medical supplies in Houston. Were a family owned medical supply store since 2007 serving our community and surrounding Houston areas. Visit our Houston showroom today or call us for more information.,<25,,https://www.facebook.com/completemedsup,https://www.x.com/cmedicalsupply,,,29.8011636,-95.4313099,,,,
Dan-loc Group,725 N Drennan St,Houston,TX,77003,United States,(713) 356-3500,https://www.danlocgroup.com/,sales@danlocgroup.com,Catch-all,Manufacturer,"Dan-Loc Group is a manufacturer and supplier specializing in high-performance threaded products, gaskets, seals, and precision machining services. With over 60 years of experience, they cater to the oil and gas, industrial, marine, power generation, and transportation industries globally.",100,https://www.linkedin.com/company/dan-loc,https://www.facebook.com/DanLocGroup,https://www.x.com/hosloctay68,https://www.instagram.com/danloc_group,,29.757645,-95.325593,Richard,Owen,"Managing Director, Strategic Development",rowen@danlocgroup.com
Dasco Home Medical Equipment - Houston North,16507 Hedgecroft Dr #108,Houston,TX,77060,United States,(866) 658-4267,https://www.godasco.com/,hr@godasco.com,Valid,Medical equipment supplier,"Our home office is in Westerville, Ohio with several branches throughout Ohio, Kentucky, West Virginia and Indiana to serve you. 

DASCO Home Medical Equipment is committed to providing patients and referral sources with the best service, quality of care and equipment possible.",188,https://www.linkedin.com/company/dasco-home-medical-equipment,,https://x.com/dascohme,,,29.9401316,-95.3895618,Kim,Crum,Vice President of Reimbursement and Compliance,kcrum@godasco.com
Direct Medical Inc.,5422 Kiam St,Houston,TX,77007,United States,(713) 869-5585,https://www.directmedicalinc.com/,,,Medical supply store,"Founded in 1989, Direct Medical Inc supplies incontinence, Wound Care and Scar Management products nationwide. Our goal is to provide high quality products at affordable prices, delivered directly to your door. We are based in Houston, TX but ship same business day, anywhere in the United States and Canada.",<25,https://www.linkedin.com/company/direct-medical-inc,https://www.facebook.com/option1painrehab,https://www.x.com/federalworkcomp,,,29.7815082,-95.4193612,,,,
E Care Medical Supplies,4306 Fulton St,Houston,TX,77009,United States,(713) 695-4939,https://ecaremedicalsupplies.com/,fer@ecaremedicalsupplies.com,Unknown,"Medical supply store, Hospital equipment and supplies, Medical equipment supplier, Mobility equipment supplier, Oxygen equipment supplier, Physiotherapy equipment supplier, Repair service, Scooter rental service, Wheelchair rental service","E Care Medical Supplies is a premier medical supply store located in Houston, TX, offering a vast inventory of medical supplies and equipment for immediate purchase. The store prides itself on providing exceptional customer service with knowledgeable staff who assist clients through every step of the selection and purchase process.",25,https://www.linkedin.com/company/ecare-medical-group,https://www.facebook.com/ecaremedical,https://www.x.com/ecaremedical,,,29.799107,-95.3676963,,,,
Essential Safety Ppe,6023 Navigation Blvd,Houston,TX,77011,United States,(301) 696-5892,https://www.esppe.com/,info@esppe.com,Catch-all,Manufacturer,Essential PPE is a 3rd generation American-Made Manufacturing group and use our full grasp of LEAN manufacturing to build the highest quality ISO Gowns and related PPE equipment at sustainable prices. Essential Safety PPE is a people-first company. We focus on our employees as much as we focus on our customers.,12,https://www.linkedin.com/company/essentialppe,https://www.facebook.com/essential-safety-ppe-107340894400560,,,,29.7483247,-95.3127205,Rob,Mcpheron,Ceo,rmcpheron@esppe.com
Excellent Medical Services,2807 Old Spanish Trl,Houston,TX,77054,United States,(713) 440-9800,https://www.xelmed.com/,info@xelmed.com,Valid,"Medical supply store, Medical equipment supplier","Excellent Medical Services is a company that operates in the Other Rental Stores (Furniture, A/V, Construction & Industrial Equipment) industry. It employs 5to9 people and has 1Mto5M of revenue. The company is headquartered in Houston, Texas.",7,https://www.linkedin.com/company/excellent-medical-equipment,,,,,29.6994687,-95.3857424,,,,
Figs,5515 Kelvin Dr Suite 130,Houston,TX,77005,United States,(713) 370-5366,https://www.wearfigs.com/pages/women-home,ir@wearfigs.com,Valid,"Medical supply store, Medical equipment supplier, Uniform store","FIGS is a founder-led, direct-to-consumer healthcare apparel and lifestyle brand that seeks to celebrate, empower, and serve current and future generations of healthcare professionals. We create technically advanced apparel and products for healthcare professionals that feature an unmatched combination of comfort, durability, function, and style.",303,https://www.linkedin.com/company/wearfigs,https://www.facebook.com/wearFIGS,https://x.com/wearFIGS,https://www.instagram.com/wearFIGS,https://www.youtube.com/c/wearFIGS,29.7163841,-95.416271,Kevin,Fosty,,kfosty@wearfigs.com
First Choice Medical Supply And Equipment,1233 Morris St,Houston,TX,77009,United States,(956) 246-9737,https://1stchoicemedicalsupplies.org/,maria@1stchoicemedicalsupplies.org,Valid,Medical supply store,First Choice Medical Supply and Equipment is a family-owned/operated company that specializes in durable medical equipment and disposable supplies.,,,,,,,29.7846863,-95.3581573,,,,
Gilgal Medical Supplies,1801 Binz St Suite 130 A,Houston,TX,77004,United States,(346) 781-9981,https://www.gilgalmedical.com/,accounts@gilgalmedical.com,Valid,Medical supply store,"Gilgal medical is a medical distributor of medical supplies, durable medical equipment, surgical supplies, medical lab supplies, home healthcare medical supplies, medical equipment and caregiver essential products and more",2,https://www.linkedin.com/company/gilgal-medical,,,,,29.7216858,-95.3820639,Eric,Herrera,Chief Operating Officer,eherrera@gilgalmedical.com
Harlee Medical,2144 Watts St,Houston,TX,77030,United States,(713) 665-5510,http://www.harleemedical.com/,info@harleemedical.com,Catch-all,Medical equipment supplier,"Harlee Medical Technologies specializes in providing new, used, and refurbished GE OEC C-arms and related equipment for interventional pain, IVF, and ambulatory surgery center markets. The company is known for offering certified pre-owned systems directly as the original equipment manufacturer, ensuring high standards of quality and service.",4,https://www.linkedin.com/company/harlee-medical-technologies-inc,,https://x.com/intent/tweet,,,29.7111221,-95.4092337,Joe,McCourt,C-arms Directly From Ge Oec. New & Refurb,joe@harleemedical.com
Heal Well Medical Supply,8719 Stella Link Rd,Houston,TX,77025,United States,(281) 645-6568,https://www.healwellmedicalsupply.com/,info@healwellmedicalsupply.com,Valid,"Medical supply store, Mobility equipment supplier, Oxygen equipment supplier, Wheelchair rental service, Wheelchair store","Heal Well Medical Supply is a local medical supply store in Houston, Tx. We have been serving Houston for 5 years Providing medical supplies such as Lift chairs, Mobility Scooters, Wheelchairs, walkers etc.",1,https://www.linkedin.com/company/heal-well-medical-supply,https://www.facebook.com/HealWellMedicalSupply/,https://x.com/healwellhouston,,,29.688063,-95.439815,,,,
Healing Air Inc,5307 Allum Rd,Houston,TX,77045,United States,(713) 434-7033,https://healingair.com/,general@healingair.com,Valid,"Medical supply store, Care services","Healing Air Inc. is a provider of affordable home care medical equipment and services located in Houston, specializing in a wide array of products designed to enhance comfort, independence, and safety for clients. Their offerings include mobility aids, respiratory care products, hospital beds, patient lifts, and daily living aids among others.",7,https://www.linkedin.com/company/healing-air-inc,https://www.facebook.com/healing-air-inc-151530448323841,,,,29.6405978,-95.4622125,Anthony,Smith,Ceo,anthony.smith@healingair.com
Healthline Medical Equipment Llc,4500 North Sam Houston Pkwy W Suite 140,Houston,TX,77086,United States,(281) 720-0608,https://www.healthlinedme.com/locations/houston-texas-store,help@healthlinedme.com,Valid,Medical supply store,"Please Follow = Healthline Medical Equipment, Inc. on LinkedIn.

You will see our logo with our Name, Tag line, and HEART. Thank you very much...as we attempt to consolidate multiple company pages created by LinkedIn automatically. :(",11,https://www.linkedin.com/company/healthline-medical-equipment,,,,,29.9385772,-95.4891084,Cory,Monks,Assistive Technology Professional (atp),cory.monks@healthlinedme.com
Heritage Durable Medical Equipment,8109 Cullen Blvd,Houston,TX,77051,United States,(713) 733-0332,https://heritage-dme.com/,,,Medical supply store,Heritage Durable Medical Equipment,,,,,,,29.671239,-95.3553088,,,,
Holcombe Medical Supply,2260 Holcombe Blvd,Houston,TX,77030,United States,(832) 742-5712,,,,"Medical supply store, Electric motor store, Orthopedic supplies store, Surgical supply store, Wheelchair rental service, Wheelchair repair service, Wheelchair store",,,,,,,,29.7060564,-95.3860853,,,,
Horizon Medical Equipment,2236 W Holcombe Blvd,Houston,TX,77030,United States,(713) 839-1420,https://www.horizonmedicalequipment.net/,sales@horizonmedicalequipment.net,Valid,"Medical supply store, Tool rental service","Discover quality mobility solutions at Horizon Medical Equipments. Shop wheelchairs, electric scooters, adjustable beds, and patient care essentials designed for comfort, safety, and independence. Reliable medical equipment for every need.",,,https://www.facebook.com/horizonmedicalequipment,,,,29.706486,-95.411068,,,,
Hospital Bed Rental Houston,2525 Robinhood St Suite 1,Houston,TX,77005,United States,(713) 589-5819,https://hospitalbedrentalhouston.com/,,,"Medical equipment supplier, Hospital equipment and supplies, Medical supply store",Affordable hospital bed rental services in Houston. Call now to schedule your rental and book an appointment for your needs.,,,,,,,29.7203807,-95.4178258,,,,
Houston Medical Supplies & Rentals,9219 Katy Fwy Suite 132,Houston,TX,77024,United States,(832) 754-8470,https://houston-medical-supplies.com/,,,"Medical supply store, Bed shop, Hospital equipment and supplies, Medical equipment supplier, Oxygen equipment supplier, Scooter rental service, Wheelchair rental service, Wheelchair repair service, Wheelchair store","Houston Medical Supplies and Rentals offers a comprehensive range of premium medical supplies, including crutches, wheelchairs, and orthopedic products since 2009. They provide flexible rental options for various medical equipment, ensuring accessibility for all clients.",8,https://www.linkedin.com/company/houston-medical-supplies-llc,https://www.facebook.com/houstonmedicalsupplies,https://www.x.com/houmedsupplies,,,29.7833524,-95.5184616,,,,
"Houston Medical Supplies, Llc",9035 Westheimer Rd,Houston,TX,77063,United States,(713) 777-2244,https://www.hms-tx.com/,sales@hms-tx.com,Catch-all,"Medical supply store, Hospital equipment and supplies, Scooter rental service, Wheelchair rental service",,,,,,,,29.7368968,-95.5239652,,,,
J Star Medical Supply & Repairs,13225 Fm 529 #109,Houston,TX,77041,United States,(281) 858-8966,https://jstarmsr.com/,,,"Medical supply store, Scooter repair shop, Wheelchair rental service, Wheelchair repair service",J Star Medical Supplies and Repair,,,,,,,29.8790004,-95.6142595,,,,
Knee Scooter Store,6624 Fannin St #170,Houston,TX,77005,United States,(713) 589-5819,https://kneescooterstores.com/,,,"Medical equipment supplier, Wheelchair rental service, Wheelchair store",Knee walker rental in Houston for recovery. Find knee scooters nearby and buy or rent one today!,,,,,,,29.709183,-95.4019701,,,,
Knovelcam Inc,2450 Holcombe Blvd Suite 112,Houston,TX,77021,United States,(833) 892-5633,https://www.knovelcam.com/,info@knovelcam.com,Valid,Medical equipment manufacturer,"KnovelCam was born out of a need for workflow improvement highlighted during the pandemic era. Our mission was to make the x-ray availability agile in hospitals workflow. Hence, we made the smallest yet powerful x-ray camera. we take pride in providing the highest resolution image while exposing the patient to least amount of dosage.",8,https://www.linkedin.com/company/knovelcam,https://www.facebook.com/KnovelCam,https://x.com/KnovelCam/following,https://www.instagram.com/KnovelCam,https://www.youtube.com/@knovelcam6565,29.7031298,-95.3833218,Reza,Rastegar,"Ceo of Knovelcam, Talks About #",reza@knovelcam.com
Knovelmed,2450 Holcombe Blvd Suite X,Houston,TX,77021,United States,(713) 396-0018,https://www.knovelmed.com/,,,X-ray equipment supplier,"KnovelMed offers advanced medical equipment tailored for healthcare professionals, hospital managers, and clinic owners. We are dedicated to providing reliable, high-performance solutions that support medical staff in delivering exceptional patient care while improving operational efficiency.",2,,,,,,29.7031298,-95.3833218,,,,
Live Oak Medical Supply,1601 Live Oak St,Houston,TX,77003,United States,,,,,Medical supply store,,,,,,,,29.7438069,-95.3547122,,,,
Mapp Caster & Supply Inc.,320 N Sampson St,Houston,TX,77003,United States,(713) 227-1144,https://www.mappcaster.com/,,,"Material handling equipment supplier, Industrial equipment supplier","Mapp Caster & Supply, Inc. specializes material handling equipment, primarily focusing on casters of all shapes, sizes and functions, caster wheels, Hand Trucks, Pallet Jacks, and services. A large inventory commitment and knowledgeable sales staff assist our customers with the correct products for their applications.",7,https://www.linkedin.com/company/mapp-caster-and-supply-inc,,,,,29.7546144,-95.335932,Jon,Martinez,,jon@mappcaster.com
Masson Development,1200 Binz St Ste. 220,Houston,TX,77004,United States,(281) 953-8380,http://massondev.com/,,,Software company,Masson Development,,,,,,,29.723971,-95.3878203,,,,
"Med Relief, Llc",1500 Hadley St #333,Houston,TX,77002,United States,,,,,Medical equipment supplier,,,,,,,,29.7440796,-95.3682069,,,,
Med Shop Plus Inc.,11585 Farm To Market 1960 Rd W,Houston,TX,77065,United States,(281) 469-4032,,,,Medical supply store,,,,,,,,29.9268379,-95.5938965,,,,
Medco Medical Supply,10305 Round Up Ln,Houston,TX,77064,United States,(713) 956-5288,,,,Medical supply store,,,,,,,,29.9183401,-95.5603051,,,,
Medical Devices Texas,10490 Huffmeister Rd,Houston,TX,77065,United States,(346) 206-4333,https://www.healwellhealthcare.com/,,,Medical supply store,Find the highest-rated and most-reviewed Wound care Houston TX has to offer today at HealWellHealthcare.com.,,,,,,,29.9267679,-95.6280161,,,,
Medical Imaging Resources,945 Mckinney St,Houston,TX,77002,United States,(713) 487-7924,,,,X-ray equipment supplier,,,,,,,,29.7575435,-95.3652497,,,,
"Medical Plus Supplies, Inc.",4025 W Fuqua St,Houston,TX,77053,United States,(800) 298-3948,https://www.mpshme.com/,anita.reddick@mpshme.com,Valid,Medical supply store,"Medical Plus Supplies provides a wide range of home care services, including medical equipment and supplies, nutritional supplements, respiratory therapy, and rehabilitation technology. Their experienced team is dedicated to coordinating in-home services to meet patients medical needs.",64,https://www.linkedin.com/company/healthcare-plus-financial,https://www.facebook.com/MedicalPlus,,,,29.612421,-95.4376959,Christine,Chappell,Vice President,christine.chappell@mpshme.com
Medical Tectronics Inc,2040 Johanna Dr,Houston,TX,77055,United States,(713) 664-6012,https://www.medicaltectronics.net/,sales@medicaltectronics.net,Catch-all,Medical equipment supplier,"Medical Tectronics is a company that operates in the Medical Devices industry. It employs 11-20 people and has $1M-$5M of revenue. The company is headquartered in Houston, Texas.",<25,https://www.linkedin.com/company/medical-tectronics-inc,,,,,29.8081914,-95.4824139,,,,
Medicoo Llc,2450 Louisiana St Ste 400-733,Houston,TX,77006,United States,,,,,Medical equipment supplier,,,,,,,,29.7475579,-95.3768201,,,,
Medinc Of Texas,1771 Crosspoint Ave,Houston,TX,77054,United States,(713) 979-4364,https://www.medincoftexas.com/,,,Medical supply store,"Exclusively serving Houston, College Station, and South Texas, MedInc of Texas represents Arthrex, a global medical device company developing innovative and minimally invasive orthopedic products and education. Focusing on what surgeons need for successful outcomes and patient satisfaction, MedInc offers training and support of Arthrex products and surgical techniques.",66,https://www.linkedin.com/company/medinc-of-texas,https://www.facebook.com/medincoftexas,https://x.com/MedincT,https://www.instagram.com/medincoftexas,https://www.youtube.com/user/OrthoIllustrated/featured,29.6710831,-95.4097254,,,,
Merc Medical Supply Co Inc,10518 Kipp Way St Ste D,Houston,TX,77099,United States,(713) 270-4936,https://www.mercmedicalsupply.com/,info@mercmedicalsupply.com,Catch-all,"Medical equipment supplier, Mobility equipment supplier, Oxygen equipment supplier, Wheelchair store","Merc Medical Supply Co is a medical devices company based out of 10518 Kipp Way Dr, Houston, TX, United States.",8,https://www.linkedin.com/company/merc-medical-supply-co,,,,,29.671743,-95.563725,Hoa,Pham,Operations Manager,hoa.pham@mercmedicalsupply.com
Merit Medical Manufacturing,14646 Kirby Dr,Houston,TX,77047,United States,(801) 208-4300,https://www.merit.com/,response@merit.com,Catch-all,Medical technology manufacturer,"Merit Medical Systems, founded in 1987 and headquartered in South Jordan, Utah, is a worldwide designer, developer, manufacturer and marketer of medical devices used in intervention and diagnostic procedures.","7,400",https://www.linkedin.com/company/merit-medical-systems-inc,https://www.facebook.com/meritmedicalsystems,https://x.com/meritmedical,https://www.instagram.com/meritmedical,https://www.youtube.com/user/meritmedical,29.5931148,-95.4014129,Cory,Marsh,"Operations Senior Manager, Regulatory",cmarsh@merit.com
Michael E. Debakey Va Medical Center,2002 Holcombe Blvd,Houston,TX,77030,United States,(713) 791-1414,http://www.houston.va.gov/,vethelp@lonestarlegal.org,Catch-all,"Medical Center, Hospital department, Veterans hospital, Military hospital, Nursing home","The United States Department of Veterans Affairs (VA) is an agency of the federal government that provides benefits, health care and cemetery services to military Veterans.","371,000",https://www.linkedin.com/company/veterans-benefits-administration,https://www.facebook.com/veteransaffairs,https://www.x.com/vavetbenefits,,,29.7000343,-95.3888407,,,,
Motiva Enterprises Llc,500 Dallas St,Houston,TX,77002,United States,(713) 277-8000,http://www.motivaenterprises.com/,,,"Manufacturer, Oil refinery","Motiva Enterprises is a leading refiner, distributor and marketer of fuels in the eastern and Gulf Coast regions of the United States.",30,https://www.linkedin.com/company/motiva-llc,https://www.facebook.com/MotivaEnterprises,,https://www.instagram.com/motivaenterprises,,29.7578344,-95.3705072,,,,
Multi-medical Equipment & Supplies,15229 Southwest Fwy,Sugar Land,TX,77478,United States,(281) 265-3156,https://www.multimedicaltx.com/,aburck@multimedicaltx.com,Valid,"Medical equipment supplier, Medical supply store","Multi-Medical Equipment & Supplies is located in the heart of Sugar Land, Texas as well as in Bellaire. We pride ourselves on providing excellent customer care to all of our patients. Here at Multi-Medical we understand that our customers are making decisions either for themselves or their loved ones and these decisions can be overwhelming at times.",9,https://www.linkedin.com/company/multi-medical-equipment-supplies,https://www.facebook.com/multimedicaltx,https://www.x.com/multimedicaltx,,,29.6038878,-95.6113336,Adam,Burck,President,aburck@multimedicaltx.com
Multi-medical Equipment And Supplies,3100 Weslayan St #373,Houston,TX,77027,United States,(713) 636-3834,http://multimedicaltx.com/,aburck@multimedicaltx.com,Valid,"Medical supply store, Motor scooter dealer, Oxygen equipment supplier, Wheelchair store","Multi-Medical Equipment & Supplies is located in the heart of Sugar Land, Texas as well as in Bellaire. We pride ourselves on providing excellent customer care to all of our patients. Here at Multi-Medical we understand that our customers are making decisions either for themselves or their loved ones and these decisions can be overwhelming at times.",9,https://www.linkedin.com/company/multi-medical-equipment-supplies,https://www.facebook.com/multimedicaltx,https://www.x.com/multimedicaltx,,,29.7369245,-95.4420309,Adam,Burck,President,aburck@multimedicaltx.com
Neurastasis,2450 Holcombe Blvd Suite X,Houston,TX,77021,United States,,https://neurastasis.com/,contact@neurastasis.com,Catch-all,Medical equipment manufacturer,"NeuraStasis, Inc. is dedicated to the development of medical devices to improve the healthcare outcomes of patients who have suffered from a stroke. Through its proprietary non-invasive neurostimulation technology, NeuraStasis seeks to increase access to care for our most vulnerable populations and empower survivors to reclaim independence.",5,https://www.linkedin.com/company/neurastasis,,,,,29.7031298,-95.3833218,,,,
One Call Medical Alert,949 Wakefield Dr #100,Houston,TX,77018,United States,(800) 916-0138,https://www.onecallmedicalalert.com/,,,Medical supply store,"At One Call Alert, we understand the desire to remain independent as you age. It is a feeling that is shared by thousands of seniors across the country. We can help you or your loved one remain comfortable and self-reliant, whether at home or away.",<25,https://www.linkedin.com/company/one-call-alert,https://www.facebook.com/OneCallAlert,https://x.com/onecallalert,,,29.8212356,-95.4225893,,,,
Oxygen Rental Houston,2525 Robinhood St,Houston,TX,77005,United States,(713) 589-5821,https://oxygenrentalhouston.com/,,,"Oxygen equipment supplier, Medical equipment supplier, Medical supply store, Wheelchair rental service",Call Us Now and Reserve,,,,,,,29.720367,-95.417786,,,,
"Paxman Us, Inc",Holcombe Blvd Innovation 2450,Houston,TX,77021,United States,(888) 572-9626,https://paxmanscalpcooling.com/,hello@paxmanscalpcooling.com,Unknown,Medical equipment supplier,"Paxman AB (publ), together with its subsidiaries, develops and sells Paxman scalp cooling system to minimize hair loss in connection with chemotherapy treatment in Europe, the United States, Mexico, Japan, Oceania, rest of Asia, and South and Central America.",67,https://www.linkedin.com/company/paxman-scalp-cooling,https://www.facebook.com/paxmanscalpcooling,https://www.x.com/scalpcooling,,,29.7034774,-95.3834148,Glenn,Paxman,CEO,paxman@paxmanscalpcooling.com
Picc Design,2617 Bissonnet St # 436,Houston,TX,77005,United States,(713) 348-9183,https://www.piccdesign.com/,support@piccdesign.com,Valid,Medical supply store,"PICC DESIGN offers PICC line arm sleeves for use by patients undergoing treatment for cancer, infectious disease, and other diagnoses that use a PICC line. 
PICC lines are used to give treatments such as chemotherapy, blood transfusions, antibiotics, intravenous (IV) fluids & liquid food.",1,https://www.linkedin.com/company/picc-design,https://www.facebook.com/piccdesignlife,,https://www.instagram.com/piccdesign,,29.7178261,-95.4146696,,,,
Premier Guard,2 Greenway Plz #460,Houston,TX,77046,United States,(203) 478-3242,https://www.premierguardintl.com/,,,Medical equipment manufacturer,"Premier Guard Intl. Ltd. is one of the worlds leading producers of medical draping solutions, focusing on microscope and equipment covers, patient draping, and surgical accessories, as well as plastics for orthopedic soft-goods and after surgery applications.",62,https://www.linkedin.com/company/premier-guard,https://www.facebook.com/premierguardllc,https://www.x.com/premier_guard,,,29.7327363,-95.4318181,,,,
Preven-a-stik,3334 Richmond Ave. Ste 115,Houston,TX,77098,United States,(281) 499-7899,,,,Medical supply store,,,,,,,,29.7344258,-95.4280642,,,,
Professional Medical Inc,4141 Southwest Fwy Suit 510,Houston,TX,77027,United States,(713) 960-1122,,,,Medical equipment supplier,,,,,,,,29.7283631,-95.4436605,,,,
Pva Sleeves Co,2990 Richmond Ave.,Houston,TX,77098,United States,(713) 942-8150,,,,Medical supply store,,,,,,,,29.7345256,-95.4231772,,,,
Quartus Llc Usa/ Q-store Inc,1001 Texas Ave,Houston,TX,77002,United States,,,,,"Wholesaler, Medical equipment supplier, Shipping company",,,,,,,,29.7600612,-95.362102,,,,
Rally Inc,,Houston,TX,77041,United States,(713) 957-8555,https://www.rallyinc.com/,,,"Medical equipment supplier, Pharmaceutical products wholesaler","Rally Inc. offers a wide range of medical products including vaccines, pharmaceuticals, surgical instruments, syringes, gloves, and examination tables. Their comprehensive product line provides healthcare professionals with all the essentials needed to deliver top-notch patient care at competitive prices.",17,https://www.linkedin.com/company/rally-medical,,,,,29.8438919,-95.5743437,,,,
Red Oak Medical Supply,850 Cypress Creek Pkwy S,Houston,TX,77090,United States,(281) 586-9509,https://www.redoakmedical.com/,info@redoakmedical.com,Catch-all,"Medical supply store, Motor scooter dealer, Oxygen equipment supplier, Wheelchair repair service, Wheelchair store","Red Oak Medical Supply Store, located in Houston, TX, offers a wide range of medical supplies and equipment including mobility aids, respiratory care, and general medical supplies. They provide products such as bath chairs, commodes, incontinence supplies, and various medical equipment.",6,https://www.linkedin.com/company/red-oak-medical-inc,https://www.facebook.com/redoakmedical,,https://www.instagram.com/redoakmedicalsupply,,30.0175436,-95.4434999,,,,
Regdesk,2450 Holcombe Blvd Suite X,Houston,TX,77021,United States,(832) 205-8837,https://www.regdesk.co/,,,Software company,"RegDesk empowers healthcare leaders with a holistic next-generation Regulatory Information Management (RIM) system, providing real-time intelligence to navigate global compliance with confidence. Our AI-driven platform keeps regulatory teams proactive, not reactive, ensuring you stay ahead of evolving requirements and risks.",72,https://www.linkedin.com/company/regdesk,,,,https://www.youtube.com/@regdeskrims,29.7031298,-95.3833218,Jixian,Wang,Chief Technology Officer,jixian@regdesk.co
Rehab Medical Of Houston,1291 N Post Oak Rd #100,Houston,TX,77055,United States,(713) 364-0585,https://www.rehabmedical.com/,supply@rehabmedical.com,Catch-all,Medical equipment supplier,"Rehab Medical has a dedicated Service Department that is staffed from 7 am  7 pm Eastern Time with an after-hours call center ready to help when needed. Most of our patients rely on their rehab equipment to help them throughout their daily routine and when it isnt working, Rehab Medical understands how critical this can be.",364,https://www.linkedin.com/company/rehab-medical,https://www.facebook.com/rehabmedicalinc,,,,29.7909785,-95.4586476,John,Irving,"ATP, QRP",john@rehabmedical.com
Resource Corporation Of America,5445 Almeda Rd Suite 200,Houston,TX,77004,United States,(713) 524-5600,https://www.resource-corp.com/,clientservices@resource-corp.com,Unknown,Medical billing service,"Resource Corporation of America specializes in converting hospitals at-risk dollars into revenue, focusing on third-party eligibility solutions. With over 30 years of experience, they have achieved a 93% certification success rate and have managed more than two billion dollars in patient account charges.",389,https://www.linkedin.com/company/397525/admin/feed/posts,https://www.facebook.com/RCAcareers,https://www.x.com/enerpluscorp,,,29.7210591,-95.3786297,Rod,Thigpen,Vice President,rodthigpen@resource-corp.com
Robbins Instruments,2003 Edwards St,Houston,TX,77007,United States,(973) 635-8972,https://www.robbinsinstruments.com/,,,Medical equipment supplier,"In 1952, Robbins Instruments was founded after learning from physicians about the need for specialized instruments and products in Dermatology and Plastic Surgery.
You can select from a vast assortment of products, such as the Dermojet, Dermablade, and more, which we provide for various medical applications.",13,https://www.linkedin.com/company/robbins-instruments-inc.,https://www.facebook.com/liposales,https://x.com/Liposales_com,https://www.instagram.com/robbinstruments,,29.7703162,-95.3787229,,,,
Safeway Medical Supply,1212 Westheimer Rd,Houston,TX,77006,United States,(713) 807-9922,https://www.safewaymedicalsupply.com/,online@safewaymedicalsupply.com,Unknown,"Medical supply store, Medical equipment supplier","Let the experts at Safeway Medical Supply help determine which product will best serve your needs, show you how to use it properly, and even deliver it to your home.
Safeway Medical Supply works with dozens of the top durable medical equipment manufacturers to bring you quality products, along with one-on-one attention to make your experience comfortable and successful for everyone involved.",6,https://www.linkedin.com/company/safewaymedicalsupply,https://www.facebook.com/SafewayMedicalSupply,https://x.com/SupplySafeway,https://www.instagram.com/safewaymedicalsupply,https://www.youtube.com/@SafewayMedicalSupplyalsupply,29.7447561,-95.3937813,Vern,Miller,Chief Executive Officer,vern@safewaymedicalsupply.com
Sleep Restfully,3100 Weslayan St #373,Houston,TX,77027,United States,(281) 840-4504,https://www.sleeprestfully.com/,sales@sleeprestfully.com,Catch-all,"Medical supply store, Medical equipment supplier, Oxygen equipment supplier","Sleep Restfully Inc. is a company owned and operated by Charles Goldberg, who has been serving his clients with home medical equipment and accessories since 1982. SleepRestfully.com has been created in order to help people get better and quicker access to the home medical equipment they need for therapy.",5,https://www.linkedin.com/company/sleep-restfully-inc,https://www.facebook.com/sleeprestfully,https://www.x.com/sleeprestfully,,,29.736933,-95.442069,Charles,Goldberg,"President, Sleep Restfully, Inc",cgoldberg@sleeprestfully.com
Spectros Mdi,2211 Norfolk St # 1110,Houston,TX,77098,United States,(650) 851-4040,https://www.spectros.com/,rob@spectros.com,Valid,"Medical equipment manufacturer, Hospital equipment and supplies, Medical technology manufacturer, Plastic surgeon","Spectros Medical Devices Inc. specializes in advanced molecular sensing devices and software that enhance understanding of tissue health and vascular performance. Their flagship product, the T-Stat Tissue Oximeter, employs Visible Light Spectroscopy to monitor tissue perfusion and facilitate quicker diagnosis and treatment decisions.",19,https://www.linkedin.com/company/spectros,https://www.facebook.com/Spectros-209355522419213,https://www.x.com/tstatbyspectros,https://www.instagram.com/tstatbyspectros,,29.7321343,-95.4133455,Rob,Pupelis,Chief Executive Officer,rob@spectros.com
Spring Branch Medical Supply,8700 Long Point Rd Suite 106,Houston,TX,77055,United States,(713) 465-2200,https://springbranchmedical.com/,faisal@springbranchmedical.com,Valid,"Medical supply store, Clothing store","Spring Branch Medical Center is a company that operates in the Hospital & Health Care industry. It employs 51-100 people and has $10M-$25M of revenue. The company is headquartered in Houston, Texas.",81,https://www.linkedin.com/company/spring-branch-medical-supply,https://www.facebook.com/springbranchmedicalsupply,https://www.x.com/springbranchmed,https://www.instagram.com/springbranchmedicalsupply,,29.8033413,-95.503059,Faisal,Poonawala,General Manager,faisal@springbranchmedical.com
St. Joseph Medical Center,1401 St Joseph Pkwy,Houston,TX,77002,United States,(713) 757-1000,https://www.sjmctx.org/,,,Medical clinic,"St Joseph Medical Center is a company that operates in the Hospitals & Physicians Clinics industry. It employs 1000to4999 people and has 50Mto100M of revenue. The company is headquartered in Houston, Texas.","3,200",https://www.linkedin.com/company/saint-joseph-medical-center-hsa,https://www.facebook.com/sjmctx,https://www.x.com/sjmctx,,,29.748276,-95.3660561,,,,
Sterile Services,6909 Grand Blvd,Houston,TX,77054,United States,(800) 522-7726,https://sterileservicesllc.com/,info@sterileservicesllc.com,Unknown,Medical equipment manufacturer,"We are a third-party, independent service provider specializing in surgical set validations, AAMI compliant autoclave cycle studies, SPD assessments / reviews and equipment performance testing.",14,https://www.linkedin.com/company/sterileservices,https://www.facebook.com/sterileservicesllc,,,,29.6985364,-95.3821287,,,,
Streamline Hospital Services,6909 Grand Blvd,Houston,TX,77054,United States,(800) 674-7831,https://streamlitelead.com/,info@shsus.org,Catch-all,Medical equipment supplier,"Specializing is radiation protection equipment, aprons, surgical caps and eyewear.",1,,https://www.facebook.com/Streamlite-Lead,,,,29.6985364,-95.3821288,,,,
Sunbelt Medical Corporation,2040 Johanna Dr,Houston,TX,77055,United States,(713) 956-9500,,,,Medical supply store,,,,,,,,29.8082319,-95.482683,,,,
Sycamore Life Sciences,410 Pierce St Ste 111,Houston,TX,77002,United States,(713) 357-9514,https://www.sycamorelifesciences.com/,support@sycamorebio.com,Valid,"Laboratory equipment supplier, Chemical wholesaler, Distribution service, Equipment supplier, Laboratory, Medical equipment supplier, Plastic products supplier, Scientific equipment supplier","We are a technology startup company, passionate about empowering scientists and moving research forward.",11,https://www.linkedin.com/company/sycamore-life-sciences,,,,,29.7520748,-95.3756928,,,,
Texas Medical Supply,151 W Brenda St,Houston,TX,77076,United States,(713) 864-7636,https://www.texasmedicalsupply.info/,,,"Medical supply store, Home health care service, Hospital equipment and supplies, Medical equipment supplier, Scooter rental service, Wheelchair rental service, Wheelchair store","Texas Medical Supply is Houstonâs premier medical supply company. For over 23 years, weâve provided solutions to special needs individuals, so they can live without limitations.",,,,,,,29.857985,-95.4005265,,,,
Texas Medical Technology,1111 Gillingham Ln,Sugar Land,TX,77478,United States,(346) 250-2655,https://www.texasmedicaltechnology.com/,sales@texasmedicaltechnology.com,Catch-all,"Manufacturer, Medical equipment supplier","Somos expertos en la manufactura, venta y distribuciÃ³n de equipos mÃ©dicos, tenemos una amplia variedad de materiales quirÃºrgicos y no quirÃºrgicos. Para saber mÃ¡s de Texas Medical Technology visiten nuestro sitio web y nuestra pÃ¡gina en inglÃ©s.",3,https://www.linkedin.com/company/texas-medical-technology,https://www.facebook.com/texas-medical-technology-inc-108398157471246,,,,29.6399684,-95.6149222,Ronen,Babajanov,Director of Sales - Us Educational Institutions,rbabajanov@texasmedicaltechnology.com
The Medequip Shop,1645 S Voss Rd,Houston,TX,77057,United States,(713) 669-0518,https://medequipshop.com/,affiliate@medequipshop.com,Catch-all,Medical supply store,"The MedEquip Shop is a company that operates in the Retail industry. It employs 6-10 people and has $1M-$5M of revenue. The company is headquartered in Houston, Texas.",<25,,https://www.facebook.com/themedequipshop,,,,29.7498459,-95.4996453,,,,
The Meditrinity Company,2003 Clay St,Houston,TX,77003,United States,(346) 777-0660,,,,"Medical equipment manufacturer, Industrial equipment supplier",,,,,,,,29.7488618,-95.3581854,,,,
Therapy Supply House,8572 Katy Fwy #109,Houston,TX,77024,United States,(713) 669-0500,https://www.therapysupply.com/,admin@therapysupply.com,Catch-all,"Medical supply store, Medical equipment supplier",Therapy Supply House was established out of a genuine desire to help individuals with products and technology for healing.,<25,https://www.linkedin.com/company/therapeutic-medical-supply-inc,https://www.facebook.com/therapysupply,https://www.x.com/therapysupplyhs,,,29.7876839,-95.4968717,,,,
Tmc Innovation Factory,Holcombe Blvd. Suite X Gate 2450,Houston,TX,77021,United States,(713) 791-8855,https://www.tmc.edu/innovation-factory/,,,"Research institute, Medical Center","Texas Medical Center (TMC) is a medical community comprised of many medical centers in Houston, Texas. Not only do they provide medical services, they also conduct life science research and nurture cross-institutional collaboration.","120,000",https://www.linkedin.com/company/texas-medical-center,https://www.facebook.com/texasmedcenter,https://x.com/TXMedCenter,https://www.instagram.com/thetexasmedicalcenter,https://www.youtube.com/user/TexasMedCenter,29.7031298,-95.3833218,,,,
"Tomowave, Inc.",7505 Fannin St Suite 500,Houston,TX,77054,United States,(713) 282-9353,https://tomowave.com/,,,"Medical equipment manufacturer, Research and product development",TomoWave Laboratories is a vertically integrated company that takes ideas of new technologies based on combination of light and ultrasound from the early stage of research and development to manufacturing and regulatory certification of commercial systems.,9,https://www.linkedin.com/company/tomowave-laboratories-inc.,,,,,29.6921714,-95.4009496,Richard,Su,Biomedical Engineer,rs@tomowave.com
University Of Houston - Research Stores,3585 Cullen Blvd Suite 070,Houston,TX,77204,United States,(713) 743-2639,,,,"Scientific equipment supplier, Laboratory equipment supplier, Medical supply store, School supply store",,,,,,,,29.7219249,-95.3463375,,,,
Us Med-equip,8964 Kirby Dr Building E,Houston,TX,77054,United States,(877) 677-7767,https://usme.com/,news@usme.com,Catch-all,"Medical equipment supplier, Equipment rental agency, Hospital equipment and supplies","From ventilators and ultrasounds to specialty mattresses, US Med-Equip (USME) provides lifesaving movable medical equipment and beds and therapeutic surface rentals with a two-hour plus drive-time delivery commitment. Trusted by leading hospitals, USME is known for its rapid response, 24/7 support, and top-rated customer service.",541,https://www.linkedin.com/company/us-med-equip-inc.,https://www.facebook.com/usmedequip,https://www.x.com/usmedequip,https://www.instagram.com/usmedequip,,29.673479,-95.413375,Carey,Stoner,Director of Equipment Management at Us Med,carey@usme.com
Usa Medpro Manufacturing Facility,6501 Navigation Blvd,Houston,TX,77011,United States,(713) 364-8784,https://usamedpro.com/,,,"Medical equipment manufacturer, Manufacturer, Medical equipment supplier, Protective clothing supplier, Wholesaler","Higher Standards. Exceptional Quality. Made in the USA. Premium ASTM Level 3 Surgical Masks, manufactured with locally sourced materials and held to the highest quality standards. Learn More Why Choose USA MedPro? Made in America Reliable, locally so",,https://www.linkedin.com/company/usamedpro,https://www.facebook.com/usamedprollc,,,https://www.youtube.com/@USAMedPro,29.7504293,-95.3066565,,,,
Vanability,700 Louisiana St #3950,Houston,TX,77002,United States,(713) 939-9922,https://www.vanability.com/,jonathan@vanability.com,Valid,Mobility equipment supplier,"Vanability LLC provides Wheelchair and Ambulatory Transportation in Houston, Texas. Call 832-651-6005 for your NEMT needs.",<25,https://www.linkedin.com/company/vanability-llc,https://www.facebook.com/vanability,,,,29.7606573,-95.3665038,,,,
Weh Technologies Inc,1224 N Post Oak Rd Suite 120,Houston,TX,77055,United States,(832) 331-0021,http://www.weh.us/,sales@weh.us,Valid,"Oxygen equipment supplier, Fire department equipment supplier, Hydraulic equipment supplier, Industrial gas supplier, Tool manufacturer, Welding gas supplier","WEH Technologies Inc is a company that operates in the Architecture, Engineering & Design industry. The company is headquartered in Illertissen, Bayern.",200,https://www.linkedin.com/company/weh-group,https://www.facebook.com/WEHQuickConnectors,,https://www.instagram.com/weh.illertissen,https://www.youtube.com/@WEHQuickConnectors,29.7884056,-95.4555962,Brian,White,President,brian.white@weh.us
Wonace Medical Supply,S Texas 6 #102 6,Houston,TX,77079,United States,(281) 810-3123,https://wonace.com/,,,"Medical equipment manufacturer, Medical supply store, Medical equipment supplier","WONACE Medical Supply specializes in providing durable medical equipment (DME) and medical supplies. We offer a wide range of products, including custom rehab mobility, diabetes supplies, power wheelchairs, adaptive equipment, pediatric equipment, and special needs medical supplies.",1,,,,,,29.7743757,-95.6448441,,,,
Zen Recovery-surgical Aftercare,2450 Louisiana St #753,Houston,TX,77006,United States,(832) 521-8003,https://zenrecovery.care/,,,"Home health care service, Community health center, Cosmetics industry, Nurse practitioner, Plastic surgeon","Post-op recovery care serve patients who had cosmetic procedures (tummy tuck, bbl, breast lift, breast implants, face lift, 360 lipo, mommy makeover or  any elective procedures. That can be anything from a knee replacement, nose job, etc.",,,,,https://www.instagram.com/p/CUbfLN4Nknd,,29.7475579,-95.3768201,,,,
2 Hearts Medical Supply,17220 Highway 3,Webster,TX,77598,United States,,https://www.2heartsmedical.com/,2heartsmedical@gmail.com,Valid,Health & medical,"WE ARE DEDICATED TO IMPROVING LIVES AND 
OFFERING THE HIGHEST LEVELS OF 
âSERVICE AND CARE POSSIBLE.

2 Hearts Medical Supply is an organization that provides vital services to our community. Our team of dedicated professionals continues to work hard to improve the level of service we provide, every day.",4,,,,,,29.5439796,-95.1246185,,,,
A To Z Medical Equipment Repair,9910 Krone Ct,Humble,TX,77396,United States,(832) 370-1172,,,,Professional services,,,,,,,,29.9422207,-95.2396545,,,,
Aaa Pallet Co.,1220 Shotwell St,Houston,TX,77020,United States,(713) 674-2000,https://www.houstonpallets.com/,info@houstonpallets.com,Valid,Wholesaler,"At AAA Pallet, we understand the critical role pallets play in your business operations. Thats why weve been dedicated to providing exceptional pallet solutions in Houston, Texas for over 50 years. As a family-owned and operated business, we prioritize quality, reliability, and personalized service.",10,https://www.linkedin.com/company/aaa-pallet-company,https://www.facebook.com/aaapallet,,,,29.7662754,-95.3119278,Yusuf,Ali,Aaa Pallet Co. | Quietly Building Something That Lasts,yusuf@houstonpallets.com
Academy Medical,2600 N Loop W,Houston,TX,77092,United States,(888) 860-0561,https://academymedical.net/,sales@academymedical.net,Valid,Health & medical,"We are a team of veterans, industry experts, and thought leaders that are helping to ensure that the federal procurement community is able to operate in a way that is fast and effective. We know that when it comes to healthcare and the procurement process, time and resources lost can have rippling negative effects.",19,https://www.linkedin.com/company/academy-medical,https://www.facebook.com/academymedicalllc,https://www.x.com/academymed,,,29.8073921,-95.4456787,Melanie,Peralta,Chief Operating Officer,mperalta@academymedical.net
Active American Mobility And Medical Supply,15229 Southwest Fwy,Sugar Land,TX,77478,United States,(281) 265-3155,,,,Health & medical,,,,,,,,29.6053867,-95.6133804,,,,
Adaptive Medical Equipment And Scrubs,8701 Broadway St,Pearland,TX,77584,United States,(281) 485-8881,https://amescrubs.com/,admin@amescrubs.com,Unknown,Health & medical,"Amescrubs is an online retailer specializing in medical equipment, scrubs, and apparel. They offer a wide variety of products, including incontinence supplies, mobility aids, and professional medical apparel for both men and women. The company aims to provide quality healthcare solutions to individuals and professionals in the medical field.",5,,https://www.facebook.com/amescrubs,,,,29.5592308,-95.3545227,Dawn,Touchet,Co Owner,dawn@amescrubs.com
Advanced Medical Supply Co.,,Houston,Texas,,United States,(832) 916-0180,https://www.advancedmedicalpa.com/,info@advmedhomecare.com,Catch-all,Health & medical,"Advanced Medical Homecare Supplies has been serving home medical equipment and respiratory supply needs since 2005. As a full-service home medical equipment provider with a strong commitment to customer service, customers know that they can count on AMHS every time.",<25,https://www.linkedin.com/company/advanced-medical-homecare-supplies,https://www.facebook.com/advanced-medical-homecare-supplies-111678195562180,https://www.x.com/advmedhomecare,,,29.8700008,-95.4599991,,,,
Aero Care Home Medical Equipment,1701 Northpark Dr,Humble,TX,77339,United States,(281) 359-0062,,,,Home health care,,,,,,,,30.0700092,-95.2286606,,,,
Aerocare Home Medical,16801 Greenspoint Park Dr,Houston,TX,77060,United States,,http://www.aerocareusa.com/,,,Health & medical,"AeroCare Holdings, founded in 2002 and based in Orlando, Florida, is a provider of oxygen, respiratory, sleep, and other chronic therapy services to patients in the home.",68,https://www.linkedin.com/company/adapthealth,https://www.facebook.com/adapthealthllc,https://portal.snapworx.com/Account/SignIn,https://www.instagram.com/adapthealthco,,29.9455338,-95.4035568,,,,
Aerocare Home Medical,4500 N Sam Houston Pkwy W,Houston,TX,77086,United States,(713) 462-0222,,,,Health & medical,,,,,,,,29.9386024,-95.4891434,,,,
Agiliti,6975 Portwest Dr,Houston,TX,77024,United States,(713) 802-9242,https://www.agilitihealth.com/,info@agilitihealth.com,Valid,Health & medical,"Agiliti, headquartered in Minneapolis, Minnesota, is a medical equipment management company that provides solutions for hospitals and healthcare systems. The company specializes in medical device management, maintenance, and compliance services to help healthcare providers optimize their medical equipment operations.","5,800",https://www.linkedin.com/company/agilitihealth,https://www.facebook.com/AgilitiHealth,https://www.x.com/agilitihealth,,https://www.youtube.com/c/Agiliti,29.7816582,-95.4507751,Elmer,Villatoro,Operations Manager,elmer.villatoro@agilitihealth.com
Agt Labs,10200 East Fwy,Houston,TX,77029,United States,(713) 453-6090,https://agtlabs.com/,info@agtlabs.com,Catch-all,Laboratory,"AGT Labs, located in Houston, TX, is a trusted provider of Food Testing, Petroleum Testing, and Industrial Hygiene services. We deliver accurate, reliable, and timely analytical results to help businesses meet quality, safety, and regulatory standards.",1,https://www.linkedin.com/in/agtlabs,,,,,29.7728271,-95.2501297,,,,
Ajt Diabetic Inc,8500 Almeda Genoa Rd,Houston,TX,77075,United States,(888) 391-3341,https://www.ajtdiabetic.com/,,,Health & medical,AJT Diabetic was founded with a singular goal in mind: to provide our valued patients with the highest level of care and service for their diabetes testing,,,,,,,29.6259651,-95.2658005,,,,
Alcon Manufacturing,9965 Buffalo Speedway,Houston,TX,77054,United States,(713) 668-9100,https://www.alcon.com/,info@alcon.com,Valid,Pharmaceutical companies,"Alcon helps people see brilliantly. As the global leader in eye care with a heritage spanning over 75 years, we offer the broadest portfolio of products to enhance sight and improve peopleâs lives. Our Surgical and Vision Care products touch the lives of more than 260 million people in over 140 countries each year living with conditions like cataracts, glaucoma, retinal diseases and refractive errors.",24922,https://www.linkedin.com/company/alcon,https://www.facebook.com/AlconEyeCare,https://www.x.com/alconeyecare,https://www.instagram.com/alconlife,https://www.youtube.com/channel/UCN_Zj_knZ6q85W8Oxl1nTUA/videos,29.6735477,-95.4231262,James,Pratt,,jp@alcon.com
Alief Medical Sales & Supplies,11851 Wilcrest Dr,Houston,TX,77031,United States,(281) 530-3232,https://www.aliefmedicalsales.com/,,,Health & medical,"Alief Medical Sales & Rentals, Inc. has been serving the Southwest Houston area since 1979. It is a family owned and operated business whose primary goal is to provide old fashioned customer service with a knowledgeable staff and a vast array of in stock items, forhome and professional use.",<25,https://www.linkedin.com/company/alief-medical-sales,https://www.facebook.com/aliefmedical79,,,,29.6495934,-95.5655746,,,,
All Med Equipment,8614 Schumacher Ln,Houston,TX,77063,United States,(210) 865-1889,,,,Health & medical,,,,,,,,29.7284355,-95.5150452,,,,
American Medical Products,857 Tristar Dr,Webster,TX,77598,United States,(281) 286-2224,https://www.ampdme.com/,info@ampdme.com,Catch-all,Health & medical,"We sell to care facilities, clinics, dentists, fitness centers, physical therapists, procurement officials, other healthcare professionals, and regular home users. We endeavor to provide our customers with a stress-free shopping experience by showcasing a long list of medical equipment and supplies in our website for them to choose from.",8,https://www.linkedin.com/company/first-american-medical,https://www.facebook.com/famdme,,,,29.5908699,-95.1779404,,,,
Amerimed Medical Equipment,5044 Crenshaw Rd,Pasadena,TX,77505,United States,(281) 333-2811,,,,Health & medical,,,,,,,,29.6397514,-95.1650314,,,,
Ami Dental,9000 Southwest Fwy,Houston,TX,77074,United States,(713) 777-3422,,,,Health & medical,,,,,,,,29.6870975,-95.5333023,,,,
Antech Diagnostics,1111 West Loop S,Houston,TX,77027,United States,(713) 627-9263,https://www.antechdiagnostics.com/,support@antechdiagnostics.com,Catch-all,Laboratory,"Antech Diagnostics, Inc., operates a network of veterinary diagnostic laboratories in the United States. It offers veterinary diagnostics services in the areas of chemistry, hematology and coagulation, endocrinology, serology and immunology, urine and fecal, therapeutic drugs, cytology and histology, and microbiology.",0,https://www.linkedin.com/company/antech-diagnostics,https://www.facebook.com/ANTECHLab,https://www.x.com/antechglp,https://www.instagram.com/antech_diagnostics,,29.7579098,-95.4539032,Adrienne,Bricaud,"National Accounts Vice President, Corporate Sales",abricaud@antechdiagnostics.com
Apnix Sleep Diagnostics,7500 San Felipe St,Houston,TX,77063,United States,(713) 349-9767,https://www.apnix.com/,stevec@apnix.com,Valid,Health & medical,"Apnix Sleep Diagnostics has been Houstonâs sleep center for diagnostics and treatments of choice for more than 25,000 patients over the past 12 years. Our eight Houston area locations provide patients with resources to sleep diagnostics, sleep apnea testing, sleep treatments and snoring relief.",28,https://www.linkedin.com/company/apnix-sleep-diagnostics,https://www.facebook.com/apnixsleepdiagnostics,https://www.x.com/apnixsd,,,29.7508316,-95.5021744,Maidelin,Martinez,Customer Service Manager,maidelin@apnix.com
Apria Healthcare,S Main St,Houston,TX,77025,United States,,https://www.apria.com/,info@apria.com,Valid,Health & medical,"Apria is a leading provider of home healthcare equipment and related services across the USA, offering a comprehensive range of products and services for in-home care and delivery of respiratory therapy, obstructive sleep apnea treatment, and negative pressure wound therapy, along with additional equipment and services.",240,https://www.linkedin.com/company/apria-healthcare,https://www.facebook.com/apriahealthcarecareers,https://www.x.com/apriahealthcare,,,29.6616249,-95.4404221,Erica,Weese,"Vice President, Sleep Supply",eweese@apria.com
Armstrong Medical Supply Llc,9254 Park South View,Houston,TX,77051,United States,(281) 970-9411,https://armstrongmed.com/,info@armstrongmed.com,Valid,Health & medical,"Armstrong Medical Supply is a full-line national distributor of medical equipment and supplies to federal government agencies, particularly the Department of Veteran Affairs, through its FSS/GSA Contract# V797D-30062. We are a small, disadvantaged, minority owned business headquartered in Houston, Texas.",11,https://www.linkedin.com/company/armstrong-medical-supply-llc,,,,,29.6538754,-95.383667,Dewayne,Bailey,Vice President of Operations,dbailey@armstrongmed.com
Bailey's Medical Equipment And Supplies,2401 S Kirkwood Rd,Houston,TX,77077,United States,(281) 809-5959,https://baileysmedical.com/,info@baileysmedical.com,Valid,Health & medical,"Exceptional Services Because We Care. Trust in Baileys Medical Equipment and Pharmacy as your beacon of reliability, delivering top-tier medical equipment and supplies.",,,https://www.facebook.com/BaileysMedicalEquipmentandSupplies,,,,29.7388153,-95.588089,,,,
Baxter Healthcare,8282 El Rio St,Houston,TX,77054,United States,(800) 445-3720,https://www.baxter.com/,busdev@baxter.com,Catch-all,Health & medical,"Baxter International Inc. provides a portfolio of renal and hospital products. The company operates through two segments, Hospital Products and Renal. The Hospital Products segment manufactures intravenous (IV) solutions and administration sets, premixed drugs and drug-reconstitution systems, pre-filled vials and syringes for injectable drugs, IV nutrition products, parenteral nutrition therapies, infusion pumps, inhalation anesthetics, and biosurgery products.",21,https://www.linkedin.com/company/baxter-healthcare,https://www.facebook.com/BaxterInternational,https://x.com/baxter_intl,,https://www.youtube.com/user/BaxterInternational,29.6831837,-95.3911819,Joe,Almeida,Chairman of the Board and Chief Executive Officer,jalmeida@baxter.com
Bayshore Medical Supply,4205 Spencer Hwy,Pasadena,TX,77504,United States,(713) 472-8585,https://bayshoremedicalsupply.net/,orderstatus@bayshoremedicalsupply.net,Catch-all,Health & medical,"Bayshore Medical Supply is a family-owned business that has been serving the medical needs of Pasadena TX, Channelview, Baytown, League City, Deer Park, Pearland, and the Greater South Houston areas for over 20 years. Our staff has the experience to find the rightsolution for your medical needs.",<25,https://www.linkedin.com/company/bayshore-medical-supply,https://www.facebook.com/bayshoremedicalsupply,,,,29.6655865,-95.1790695,,,,
Brooks Equipment - Houston Warehouse,5931 South Loop E,Houston,TX,77033,United States,(800) 826-3473,http://www.brooksequipment.com/,sales@brooksequipment.com,Valid,Wholesaler,"Brooks Equipment specializes in providing a range of fire safety and emergency response products, such as fire extinguishers, backflow preventers, and alarm systems. Their offerings also include personal protection safety products, signs, labels, and various accessory items essential for safety compliance.",341,https://www.linkedin.com/company/brooks-equipment-llc,https://www.facebook.com/brooksequipment,https://www.x.com/cityofcom,,https://www.youtube.com/playlist,29.6903191,-95.3325577,Mike,Cox,,mcox@brooksequipment.com
"Comfort & Care Medical Supplies, Inc.",515 E 1st St,Humble,TX,77338,United States,(844) 275-2267,https://www.ccmsathome.com/,,,Health & medical,,,,,https://www.ccmedicaltx.com/Enteraltraining,,,29.9992867,-95.2607193,,,,
Complete Care Medical,3535 Briarpark Dr,Houston,TX,77042,United States,(800) 503-7604,https://getcompletecare.com/,info@getcompletecare.com,Valid,Health & medical,"Complete Care Medical provides a comprehensive selection of urological and medical supplies, including a variety of catheters, compression gear, mobility devices, and nutritional supplements. With a focus on personalized service, they assist patients in navigating insurance processes while offering free catheter samples and discreet shipping.",27,https://www.linkedin.com/company/complete-care-medical-inc,https://facebook.com/getcompletecare,https://x.com/getcompletecare,https://instagram.com/completecaremedical,https://www.youtube.com/channel/UCF-igZ2WIKU515asg7jyVtw,29.7261333,-95.5483398,Chris,Miller,Chief Operating Officer and General Counsel,chris@getcompletecare.com
Coram Cvs/specialty Infusion Services,10611 S Sam Houston Pkwy W,Houston,TX,77071,United States,(713) 667-4010,https://www.coramhc.com/,info@coramhc.com,Catch-all,Health & medical,"Coram LLC is a healthcare services company. It provides home infusion and tube feeding therapy. The company was founded in 1988 and is headquartered in Northbrook, Illinois.",800,https://www.linkedin.com/company/coram-healthcare,https://www.facebook.com/feedingtubeawareness,https://www.x.com/coramhc,,,29.6400223,-95.5370483,Jon,Wolf,Branch Infusion Manager,jon.wolf@coramhc.com
Derrick Medical Equipment Repair,10101 Harwin Dr,Houston,TX,77036,United States,(832) 713-5265,http://derrickmedicalequipmentrepair.com/,derrickengineer19@yahoo.com,Catch-all,Health & medical,"(Describe when you were founded, the most important thing your company does, what you care most about, and what sets you apart from similar businesses.) Derrick medical equipment repair is family-owned and operated right here in Houston, Tx. Since our company opened its doors in 2010, weve treated every customer like they were a part of our family.",6,,,,,,29.7175827,-95.5413513,,,,
"Developmental Disability Management Services, Llc Of Houston",4115 Galveston Rd,Houston,TX,77017,United States,(713) 475-2228,https://ddmsllc.com/,,,Home health care,"Developmental Disability Management Services LLC is a company that operates in the Public Relations and Communications industry. It employs 21-50 people and has $5M-$10M of revenue. The company is headquartered in Beaumont, Texas.",25,https://www.linkedin.com/company/ddms-operations-llc,https://www.facebook.com/rha-community-services-of-utah-189183167823310,https://www.x.com/ddms_realm,,,29.6937561,-95.2628021,Debbie,Allison,,debbie@ddmsllc.com
Durable Medical Equipment Hme And Medical Supply,9800 Centre Pkwy,Houston,TX,77036,United States,(281) 888-6632,https://www.globalwavemart.com/,ataiwo@globalwavemart.com,Valid,Health & medical,"Global Wave Mart revolutionizes medical equipment and supply sales by partnering vendors to consumers through a one-stop-shop marketplace. Thus, galvanises the medical equipment and supply sales industry by utilizing a bilateral marketplace partnership benefiting both vendors and their customers.",1,https://www.linkedin.com/company/global-wave-mart-healthcare-llc/mycompany,https://www.facebook.com/Globalwavemart,https://x.com/global_wavemart,https://www.instagram.com/stories/globalwavemart/2997781087419554760,https://www.youtube.com/@GlobalWaveMart/featured,29.6735401,-95.5516891,,,,
Elegant Medical Supply Inc,6525 W Sam Houston Pkwy N,Houston,TX,77041,United States,(713) 466-4500,,,,Health & medical,,,,,,,,29.8649559,-95.5646362,,,,
Emason Medical Equipment,15825 Bellaire Blvd,Houston,TX,77083,United States,(832) 351-3668,,,,Health & medical,,,,,,,,29.6994152,-95.6654892,,,,
Forward Science,10810 Craighead Dr,Houston,TX,77025,United States,(855) 696-7254,https://www.forwardscience.com/,sales@forwardscience.com,Valid,Pharmaceutical companies,"Forward Science is a Houston based company that was founded with a mission to save lives. Although we typically save lives through advanced technology, Forward Science is happy in being able to play a role in restoring dental and medical professionals back to normalcy in any way possible.",50,https://linkedin.com/company/forwardscience,https://www.facebook.com/ForwardScience,https://x.com/ForwardScience_,https://www.instagram.com/forwardscience,,29.6637192,-95.4460983,Kionna,Kellogg,"Manager, Operations",kkellogg@forwardscience.com
Global Medical Devices Llc,13427 Pike Rd,Missouri City,TX,77489,United States,(346) 304-2868,https://globalmedicaldevices.co/,,,Health & medical,Global Medical Devices â Providing quaility pre-owed & refurbished medical equipment,,https://www.linkedin.com/in/globalmedicaldevicesllc,https://www.facebook.com/people/Global-Medical-Devices/100086997190833,,https://www.instagram.com/globalmedicaldevicesllc,,29.6282787,-95.5483093,,,,
Great American Mobility And Medical Equipment,2111 Fm 1960 Rd W,Humble,TX,77338,United States,(832) 445-0956,https://txmobility.com/,,,Health & medical,"An independent provider that started with the goal of assisting those who benefit from the use of durable medical equipment, which quickly grew into the devoted team of specialists with a centered focus on complex rehab equipment and mobility. Since 2002, Great American Mobilitys staff has committed themselves to exceed the expectations of their patients and the individuals involved in their patients care.",29,https://www.linkedin.com/company/great-american-mobility-medical-equipment,https://www.facebook.com/great-american-mobility-medical-equipment-1615401588689622,https://www.x.com/mobirise,,,29.9999466,-95.2427597,Daniel,Armstrong,,daniela@txmobility.com
Greater Texas Ice Equipment,3004 Claymoore Park Dr,Houston,TX,77043,United States,,,,,Health & medical,,,,,,,,29.823761,-95.5669937,,,,
Hanger Clinic - Central Fabrication,3620 Willowbend Blvd,Houston,TX,77054,United States,(832) 482-7268,https://www.hangerclinic.com/,socialmedia@hanger.com,Catch-all,Health & medical,"Hanger is a provider of orthotic and prosthetic (O&P) services and products. This company is headquartered in Austin, Texas.","5,200",https://www.linkedin.com/company/hangerclinic,https://www.facebook.com/HangerNews,https://www.x.com/hangernews,https://www.instagram.com/hangernews,https://www.youtube.com/hangernews,29.6646519,-95.434967,John,Ellis,Account Representative,john@hangerclinic.com
Hk Medical Equipment Llc,,Houston,Texas,,United States,(346) 293-9172,https://hkmedequip.com/,info@hkmedequip.com,Valid,Health & medical,HK Medical Equipment LLC    Trading & services   Contact Us,,,https://www.facebook.com/hkmedicalequipment,,,,29.8299999,-95.4700012,,,,
Houston Medical Equipment Repair,,Houston,Texas,,United States,(281) 691-1029,https://www.hmers.com/,,,Health & medical,,,,,,,,29.8400002,-95.4599991,,,,
Houston Pathology Associates,7600 Fannin St,Houston,TX,77054,United States,(713) 790-1234,http://womanshospital.com/,,,Health & medical,"Founded in 1976 in Houston, Texas, The Womans Hospital of Texas offers medical services to the health of women, newborns, and children. Services include care in breast health, imaging, gynecology, obstetrics, high-risk pregnancy, neonatology, minimally-invasive surgery, and pediatric care.","1,750",https://www.linkedin.com/company/woman's-hospital-of-texas-incorporated,https://www.facebook.com/thewomanshosptx,https://www.x.com/thewomanshosptx,,,29.6930676,-95.4021454,,,,
Instrument Repair-calibration,4400 S Wayside Dr,Houston,TX,77087,United States,(713) 910-0106,https://www.instrumentrepairandcalibration.com/,info@instrumentservices.com,Catch-all,Laboratory,"Instrument Repair and Calibration Inc.Â has set the industry standard for instrument repair, calibration and N.I.S.T. traceable certification for more thanÂ 40 years. Known for exceptional quality in workmanship and service, IRC guarantees all of its work with anÂ industry leadingÂ warranty.",8,https://www.linkedin.com/company/instrument-repair-calibration-inc,https://www.facebook.com/instrumentrepairandcalibration,https://x.com/texascalibrate,,,29.6981449,-95.321434,,,,
J & R Medical Supply,,Houston,TX,77014,United States,,https://jandrmedical.com/,info@jandrmedical.com,Valid,Health & medical,"J&R Medical opened its doors May 5, 2006, under the ownership of James and Jessica DuBose. What began as a small home based business has grown into a national supply company that offers a full range of Urological, Incontinence and Enteral Nutritional feeding supplies.",7,https://www.linkedin.com/company/j&r-medical,https://www.facebook.com/180medical,https://x.com/180medical,https://www.instagram.com/180medical,https://www.youtube.com/channel/UCyBjhY8uL3EDL72i-7FYZ-A,29.9824142,-95.4620667,,,,
"Jbk Industries, Llc",,Houston,Texas,,United States,(346) 732-1700,,,,Health & medical,,,,,,,,29.8400002,-95.4599991,,,,
Living Well Center Home Medical Equipment & Supplies,13311 Hargrave Rd,Houston,TX,77070,United States,,,,,Health & medical,,,,,,,,29.9685593,-95.5525208,,,,
Lula Bell Medical Supplies &equipment Llc,Fm-2920 Spring 4701,,TX,77388,United States,(281) 323-4858,,,,Health & medical,,,,,,,,30.0727386,-95.4926376,,,,
Mac Group Durable Medical Supplies & Equipment,505 N Sam Houston Pkwy E,Houston,TX,77060,United States,(713) 894-1438,,,,Health & medical,,,,,,,,29.9398384,-95.3926544,,,,
Mckesson Medical-surgical 16,20710 Hempstead Rd,Houston,TX,77065,United States,,https://mms.mckesson.com/,communications@mckesson.com,Catch-all,Pharmaceutical companies,"McKesson Corporation provides pharmaceuticals and medical supplies in the United States and internationally. The company operates in two segments, McKesson Distribution Solutions and McKesson Technology Solutions. The McKesson Distribution Solutions segment distributes branded and generic pharmaceutical drugs, and other healthcare-related products; and provides practice management, technology, clinical support, and business solutions to community-based oncology and other specialty practices.","43,000",https://www.linkedin.com/company/McKesson,https://www.facebook.com/McKessoncorporation?,https://x.com/McKesson,https://www.instagram.com/McKessoncorporation,,29.9202976,-95.6261749,Scott,Weiss,Managing Chief Counsel,weiss@mckesson.com
Medical Equipment Connection,12805 Capricorn St,Stafford,TX,77477,United States,(281) 277-2660,,,,Health & medical,,,,,,,,29.6345634,-95.5674667,,,,
Medical Equipment Mart,4028 Strawberry Rd,Pasadena,TX,77504,United States,(713) 946-6660,,,,Health & medical,,,,,,,,29.6494503,-95.1914291,,,,
"Medical Express, Psi",,Houston,Texas,,United States,(713) 465-1010,https://www.medexpsi.com/,info@medexpsi.com,Valid,Health & medical,"Medical Express, PSI provides Orthotics, Prosthetics, Durable Medical Equipment, and Breast Pumps. Medical Express PSI is the licensed and accredited division of MedEx which facilitates health insurance billing and a full service Orthotics and Pain Management programs.",61,https://www.linkedin.com/company/medical-express-psi,https://www.facebook.com/psi-premier-208152626473473,,,,29.7000008,-95.3199997,Gearld,Hoffman,"Regional Manager, at Medical Express, Psi",ghoffman@medexpsi.com
Medical Imaging Equipment,9909 Harwin Dr,Houston,TX,77036,United States,(713) 640-5457,,,,Health & medical,,,,,,,,29.7157116,-95.5345383,,,,
Medical Supply & Equipment Store | Wonace,810 Tx-6 S,S Houston,TX,77079,United States,(281) 810-3123,https://wonace.com/,,,Health & medical,"WONACE Medical Supply specializes in providing durable medical equipment (DME) and medical supplies. We offer a wide range of products, including custom rehab mobility, diabetes supplies, power wheelchairs, adaptive equipment, pediatric equipment, and special needs medical supplies.",1,,,,,,29.774395,-95.6448593,,,,
Medirect Medical Supplies,2245 Texas Dr,Sugar Land,TX,77479,United States,(844) 363-3278,https://medirectmedicalsupplies.com/,contact@medirectmedicalsupplies.com,Catch-all,Health & medical,"Medirect Medical Supplies: Your Trusted Partner in Healthcare
At Medirect Medical Supplies, we prioritize your health and convenience. Beyond just sales, we specialize in offering top-tier medical equipment rentals. Our expansive inventory ensures that we can provide same-day delivery, even to locations as specific as the 2nd & 3rd floors of your home or facility, on weekends, after hours, and holidays.",9,https://www.linkedin.com/company/medirect-medical-supplies/about,https://www.facebook.com/medirectmedicalsupplies,,https://www.instagram.com/medirectmedical,https://www.youtube.com/channel/UCCkegUJqJ2p69mgrH6IdW2Q,29.596693,-95.6203079,Fernando,Sedano,Director (orlando),fsedano@medirectmedicalsupplies.com
Memorial Hermann Home Health,920 Frostwood Dr,Houston,TX,77024,United States,(713) 338-7300,http://www.memorialhermann.org/,international@memorialhermann.org,Catch-all,Home health care,Memorial Hermann is a not-for-profit health system in Southeast Texas. It has hospitals and numerous specialty programs and services conveniently located throughout the Greater Houston area.,"30,000",https://www.linkedin.com/company/memorialhermann,https://www.facebook.com/memorialhermann,https://www.x.com/memorialhermann,,,29.7815876,-95.546814,JoAnn,Mick,"Registered Nurse Case Manager, Pediatric Hospice",joann.mick@memorialhermann.org
Memorial Hermann Imaging Center - Upper Kirby,2900 Richmond Ave,Houston,TX,77098,United States,(713) 512-6040,https://memorialhermann.org/locations/imaging-center-upper-kirby,international@memorialhermann.org,Catch-all,Diagnostic imaging,Memorial Hermann is a not-for-profit health system in Southeast Texas. It has hospitals and numerous specialty programs and services conveniently located throughout the Greater Houston area.,"30,000",https://www.linkedin.com/company/memorialhermann,https://www.facebook.com/memorialhermann,https://www.x.com/memorialhermann,,,29.7345886,-95.4225235,,,,
Mj Durable Medical Equipment And Supplies,9898 Bissonnet St,Houston,TX,77036,United States,(713) 497-5076,https://www.mjmedsupplies.com/,,,Health & medical,"Shopify provides a reliable Ecommerce platform so you focus on selling online! Integrated hosting, shopping cart and Ecommerce payment solution all in one!",2,,,,,,29.675808,-95.5531235,,,,
"Monitor Medical, Inc.",12999 Jess Pirtle Blvd,Sugar Land,TX,77478,United States,(281) 240-7222,https://www.monitormedical.com/,customerservice@monitormedical.com,Catch-all,Health & medical,"Monitor Medical, Inc., known as The CPAP Company, specializes in providing a wide range of CPAP and BiPAP products including devices, masks, and accessories from reputable brands like ResMed and Respironics. They offer services tailored to clients with sleep apnea, collaborating with various insurance plans such as Medicare and Aetna to make their products accessible.",55,https://www.linkedin.com/company/monitor-medical,https://www.facebook.com/thecpapcompany,https://www.x.com/thecpapco,,,29.6367588,-95.6113129,Irfan,Mirza,IT manager,irfan.mirza@monitormedical.com
"Monitor Medical, Inc.",16876 Royal Crest Dr,Houston,TX,77058,United States,(281) 338-9091,https://www.monitormedical.com/,customerservice@monitormedical.com,Catch-all,Health & medical,"Monitor Medical, Inc., known as The CPAP Company, specializes in providing a wide range of CPAP and BiPAP products including devices, masks, and accessories from reputable brands like ResMed and Respironics. They offer services tailored to clients with sleep apnea, collaborating with various insurance plans such as Medicare and Aetna to make their products accessible.",55,https://www.linkedin.com/company/monitor-medical,https://www.facebook.com/thecpapcompany,https://www.x.com/thecpapco,,,29.5578575,-95.1151733,Irfan,Mirza,IT manager,irfan.mirza@monitormedical.com
Multi-medical Equipment & Supplies,593 S Mason Rd,Katy,TX,77450,United States,(281) 829-2727,http://www.multimedicaltx.com/,aburck@multimedicaltx.com,Valid,Health & medical,"Multi-Medical Equipment & Supplies is located in the heart of Sugar Land, Texas as well as in Bellaire. We pride ourselves on providing excellent customer care to all of our patients. Here at Multi-Medical we understand that our customers are making decisions either for themselves or their loved ones and these decisions can be overwhelming at times.",9,https://www.linkedin.com/company/multi-medical-equipment-supplies,https://www.facebook.com/multimedicaltx,https://www.x.com/multimedicaltx,,,29.7752113,-95.749855,Adam,Burck,President,aburck@multimedicaltx.com
National Medical Equipment,5313 Bellaire Blvd,Bellaire,TX,77401,United States,,,,,Health & medical,,,,,,,,29.7052517,-95.4737015,,,,
National Medical Equipment & Supply,6620 Harwin Dr,Houston,TX,77036,United States,(713) 952-9722,,,,Health & medical,,,,,,,,29.7203045,-95.4982529,,,,
National Seating & Mobility,2055 Silber Rd,Houston,TX,77055,United States,(713) 468-0696,https://locations.nsm-seating.com/tx/houston/2055-silber-road,chicago@nsm-seating.com,Valid,Health & medical,"National Seating & Mobility provides mobility, rehabilitation, and adaptive seating systems to clients, therapists, and physicians. This company is headquartered in Chattanooga, Tennessee.","2,372",https://www.linkedin.com/authwall,https://www.facebook.com/NSMobility,https://www.x.com/mobilitynsm,https://www.instagram.com/nsmobility,,29.8055134,-95.4693756,Daniel,Houston,,houston@nsm-seating.com
Nationwide Testing Systems,4141 Directors Row,Houston,TX,77092,United States,(713) 869-8378,https://www.nationwidetestingsys.com/,customerservice@nationwidetestingsys.com,Catch-all,Health & medical,"Nationwide Testing Systems, formerly American Drug Screening Service, has provided comprehensive drug and alcohol testing in Houston, Texas, and around the world for 30 years. We tailor drug screens to suit the special needs of our clients for the workplace, legal, and individual testing.",5,,https://www.facebook.com,https://x.com,,,29.8071651,-95.4498978,Lezlie,Potts,Managing Owner,lezlie@nationwidetestingsys.com
Northshore Medical Supplies,9700 Fm-1960,Humble,TX,77338,United States,(281) 446-4606,https://www.northshoreuniforms.com/,humblemedicalsupply@gmail.com,Valid,Health & medical,,,,,,,,30.0042858,-95.2767715,,,,
"Northshore Medical Supplies, Inc.",375 Maxey Rd,Houston,TX,77013,United States,(713) 451-4462,http://www.northshoreuniforms.com/,humblemedicalsupply@gmail.com,Valid,Health & medical,,,,,,,,29.7926788,-95.2180939,,,,
Pace Analytical,8285 El Rio St,Houston,TX,77054,United States,(346) 553-5145,https://www.pacelabs.com/,info@pacelabs.com,Valid,Laboratory,"Founded in 1978, Pace Analytical delivers the highest standard of testing & scientific services in the market. They offer the most advanced solutions in the industry, backed by truly transparent data, a highly trained team, and the service & support that comes from decades of experience.","3,300",https://www.linkedin.com/company/pacelabs,https://www.facebook.com/PaceLabsUSA,https://x.com/PaceLabs,https://www.instagram.com/pace.labs,https://www.youtube.com/user/PaceLabsInc,29.6817188,-95.3895187,Pam,Bednar,Head of Marketing,pam.bednar@pacelabs.com
Paragon Houston Infusion Center,4710 Bellaire Blvd,Bellaire,TX,77401,United States,(713) 860-1755,https://paragonhealthcare.com/,info@paragonhealthcare.com,Catch-all,Health & medical,"Offering patients comprehensive access to their infusible and injectable drug therapies to best fit their needs.
A nationwide leader for more than 20 years in infusion care, Paragon Healthcare makes infusion therapy as seamless as possible for our patients.",593,https://www.linkedin.com/company/paragonhealthcare,https://www.facebook.com/paragonhealthcareinc,https://www.x.com/paragonhc,,,29.7062702,-95.461647,Yuliya,Berman,,yberman@paragonhealthcare.com
Pcca,9901 Wilcrest Dr,Houston,TX,77099,United States,(800) 331-2498,https://www.pccarx.com/,education@pccarx.com,Catch-all,Pharmaceutical companies,"PCCA helps pharmacists and prescribers create personalized medicine that makes a difference in patients lives. As a complete resource for independent compounding pharmacists, PCCA provides high-quality products, education and support to more than 3,500 pharmacy members throughout the United States, Canada, Australia and other countries around the world.",328,https://www.linkedin.com/company/pcca,https://www.facebook.com/pccarx,https://pccarx.com/Home/SignIn,http://www.instagram.com/pccarx,http://www.youtube.com/user/pccarx,29.6719456,-95.5693741,Jim,Rodimon,Senior Software Developer,jrodimon@pccarx.com
Pointe Medical Llc,,Houston,Texas,,United States,(928) 848-6728,https://pointemedsales.com/,,,Health & medical,"We specialize in Pre-owned medical, and Surgical Equipment. Based in Houston, Texas, Pointe Medical offers top brand medical equipment at highly competitive prices.",3,,,,,,29.8400002,-95.4599991,,,,
"Redi-quip Medical Equipment & Supplies, Inc.",16820 Barker Springs Rd,Houston,TX,77084,United States,(281) 492-2799,https://rediquip.com/,charliep@rediquip.com,Unknown,Health & medical,,,,,,,,29.7860775,-95.6739807,,,,
Rice Village Medical Supply,,Houston,Texas,,United States,(713) 589-5821,https://www.ricevillagemedsupply.com/,ricevillagemedsupply@gmail.com,Valid,Health & medical,"If you are looking for a specialized product, or simply have a question about one of our products or services, please reach out to us",2,https://www.linkedin.com/company/rice-village-medical-supply,https://www.facebook.com/rice-village-medical-supply-1039870479508177,,,,29.8400002,-95.4599991,,,,
Richmond Medical Equipment And Supplies Llc,12808 W Airport Blvd,Sugar Land,TX,77478,United States,(346) 538-2356,https://richmondmedicalequipment.com/,info@richmondmedicalequipment.com,Catch-all,Health & medical,DNS resolution error | richmondmedicalequipment.com | Cloudflare,,,,,,,29.6465969,-95.6087646,,,,
San Pedro Medical Supplies-equipment,9301 Southwest Fwy,Houston,TX,77074,United States,(832) 200-0543,,,,Health & medical,,,,,,,,29.679348,-95.5372696,,,,
Sleep Aid Medical Equipment,6701 Highway 6,Missouri City,TX,77459,United States,(832) 539-1293,,,,Health & medical,,,,,,,,29.5583553,-95.5571594,,,,
Sos Medical Supplies,12834 Murphy Rd,Stafford,TX,77477,United States,(713) 957-4848,https://www.sosmedicalsupplies.com/,larry@sosmedicalsupplies.com,Valid,Health & medical,"SOS Medical Supplies offers online sales of prescription and non prescription medical equipment and supplies including bath and toilet aids, CPAP products and rollators.",<25,https://www.linkedin.com/company/sos-medical-supply,,,,,29.6352196,-95.5664749,Andy,Cox,Partner,andy@sosmedicalsupplies.com
Spbs Medical Equipment Service,16302 Sea Lark Rd,Houston,TX,77062,United States,(281) 488-5800,https://www.spbs.com/,info@spbs.com,Valid,Professional services,"SPBS, Inc. Biomed is an employee-owned organization dedicated to providing comprehensive clinical equipment services, including repair, maintenance, inventory management, and cybersecurity risk management. The company focuses on delivering high-quality service with quick response times and flexible plans tailored to meet the needs of various organizations.",80,https://www.linkedin.com/company/s.p.b.s.,https://www.facebook.com/therealspbs,https://www.x.com/therealspbs,,,29.5581341,-95.1257553,Staadan,Sawyer,Regional Manager,staadans@spbs.com
Star Medical Supply,10333 Harwin Dr,Houston,TX,77036,United States,(281) 888-4637,http://www.starmedicalsupply.us/,,,Health & medical,"We provide equipment from some of the top and most trusted names in the industry such as Pride Mobility, Drive, Shoprider, Invacare and Merits to name a few. We have been in business for over 10 years and are eager to serve you. Our superior customer service and knowledgeable staff makes finding your medical supply and equipment needs a very easy and worriless task.",<25,,,,,,29.7163525,-95.5479965,,,,
Sugar Land Medical Supply,16126 Southwest Fwy,Sugar Land,TX,77479,United States,(281) 201-2400,https://sugarlandmedicalsupply.com/,contact@sugarlandmedicalsupply.com,Catch-all,Health & medical,Sugar Land Medical Supply is a company that provides a great variety of medical supplies and equipment! We have two easy to access retail locations! Our Sugar Land location is on the intersection of HWY 59 South and HWY 6 and our Stafford location is on HWY 59 and W Airport!,1,https://www.linkedin.com/company/medinova-inc,,,,,29.5970764,-95.6251831,,,,
Test Equipment Usa,9431 Winkler Dr,Houston,TX,77017,United States,(713) 904-4604,https://www.testequipmentusa.com/,sales@testequipmentusa.com,Catch-all,Laboratory,"TestEquipmentUSA specializes in providing a comprehensive range of electrical test tools, precision instruments, environmental instruments, and accessories for various testing and measurement needs. Their product lineup includes battery testers, multimeters, thermal imagers, pressure gauges, and many more specialized devices for nuanced testing applications.",18,https://www.linkedin.com/company/testequipmentusa,https://www.facebook.com/testequipmentusa,https://www.x.com/testequipmentus,,,29.6706676,-95.2488556,,,,
"Texas Home Medical, Inc.",4028 Strawberry Rd,Pasadena,TX,77504,United States,(832) 230-8011,https://texashomemedical.com/,info@texashomemedical.com,Catch-all,Health & medical,"Texas Home Medical is a Home Respiratory Company located at 110 Commercial Circle Suite #B Conroe, Texas, United States.",22,https://www.linkedin.com/company/texas-home-medical,,,,,29.6494503,-95.1914291,Jason,Hall,,jhall@texashomemedical.com
Texas Personal Protection Equipment,131 Northpoint Dr,Houston,TX,77060,United States,(713) 493-2079,,,,Health & medical,,,,,,,,29.9384594,-95.4057617,,,,
Transworld Medical Equipment,9894 Bissonnet St,Houston,TX,77036,United States,(281) 556-5344,,,,Health & medical,,,,,,,,29.6771431,-95.5529556,,,,
Unity Homecare,4000 Dover St,Houston,TX,77087,United States,(713) 944-0500,http://www.unityhomecare.com/,financial@unityhomecare.com,Valid,Home health care,"Unity HomeCare has been appointed to take responsibility for the decision making process both on administrative and clinical levels. We are committed to provide reliable services to your home care needs. We are also take a personal interest in each clients particular needs and provides the safe quality care the best serves the clients by RNs, LVNs and Certified Nurse Aides.",<25,https://www.linkedin.com/company/unity-homecare,,,,,29.6834412,-95.2805862,,,,
Vitalus Airway Llc,10019 S Main St,Houston,TX,77025,United States,(281) 968-2300,https://vitalushealth.com/,,,Health & medical,"We are dedicated to helping individuals to breathe better through our unique integrated approach to evaluating, diagnosing, and treating a wide array of breathing disorders. It is our mission to provide outreach, education, and engagement for our patients so that we can create meaningful clinical interventions and improve the quality of life of anyone with chronic breathing issues.",1,https://www.linkedin.com/company/vitalus-health,,,,,29.6759605,-95.4280243,Dena,Cavazos,Senior Human Resources Generalist and Senior Ea to Chief Executive Officer,dena.cavazos@vitalushealth.com
Wecare Dme Supplies Corp.,7111 Harwin Dr,Houston,TX,77036,United States,(713) 389-5200,https://wecaredmesupplies.com/,,,Health & medical,"At Wecare DME Supplies, we offer durable medical equipment and medical supplies tailored for your needs. Whether youâre looking for mobility aids or home medical equipment, we ensure high-quality solutions for your health and comfort.",,,,,,,29.7176819,-95.5080643,,,,
Wexler Surgical,11333 Chimney Rock Rd,Houston,TX,77035,United States,(713) 723-6900,https://www.wexlersurgical.com/,ventas@wexlersurgical.com,Valid,Health & medical,"Wexler Surgical specializes in high-quality surgical instrumentation, offering a diverse range of products tailored for various surgical procedures, including Uniport VATS and PTE. Their innovative instruments, such as the VATS Viper Forceps and Madani PTE Set, are designed to enhance surgical efficiency and reduce hand fatigue.",25,https://linkedin.com/company/wexlersurgical,https://www.facebook.com/WexlerSurgical,https://x.com/Wexler_Surgical,https://www.instagram.com/wexlersurgical,https://www.youtube.com/channel/UCy1oqYykshZwovpWGW2nM1g,29.6582298,-95.4759903,Anna,Golod,Business Manager,agolod@wexlersurgical.com
Wt National Medical Equipment & Supplies Inc,,Houston,TX,77036,United States,(713) 539-8175,,,,Health & medical,,,,,,,,29.7166443,-95.51474,,,,
X-ray Equipment & Compliance,12999 Murphy Rd,Stafford,TX,77477,United States,(281) 498-0514,,,,Health & medical,,,,,,,,29.6351471,-95.5631409,,,,
Xmed Oxygen & Medical Equipment,804 Summer Park Dr,Stafford,TX,77477,United States,(281) 969-8800,,,,Health & medical,,,,,,,,29.6076164,-95.5691452,,,,