ï»¿Business,Street,City,State,Postcode,Country,Phone,Website,Email,Email Type,Categories,Description,Employees,Linkedin,Facebook,X,Instagram,Youtube,Lat,Lng,Contact First Name,Contact Last Name,Contact Role,Contact Email
A To Z Medical Equipment & Supplies Llc,15060 E Beltwood Pkwy Suite B,Addison,TX,75001,United States,(214) 349-2869,https://atozwheelchairs.com/,orders@atozwheelchairs.com,Valid,"Medical supply store, Scooter rental service, Wheelchair rental service, Wheelchair store","We deliver throughout the Dallas - Fort Worth area, and during delivery our service techs will instruct you on how to use your new equipment. We Are The Dallas-Fort Worth Metroplex Premier Medical Equipment Retailer: Our Dallas Medical Equipment company is the proud winner of a Medicare competitive bid in the Dallas/Fort Worth Metroplex area for mobility products.",<25,https://www.linkedin.com/company/a-to-z-medical-equipment-&-supplies-llc,https://www.facebook.com/atozmed,,,,32.9526903,-96.8317224,,,,
Aabco-ready Rental Sales & Repair,5040 Grisham Dr Suite 103,Rowlett,TX,75088,United States,(972) 412-3500,https://readyrentalmedical.com/,synexus@gmail.com,Valid,Medical supply store,"AABCO - Ready Rental Sales & Repair is a company that operates in the Medical Devices industry. It employs 1-5 people and has $0M-$1M of revenue. The company is headquartered in Rowlett, Texas.",<25,,,,,,32.9055364,-96.5822227,,,,
Adeton Medical Supply Inc,9535 Forest Ln Suite 125 B,Dallas,TX,75243,United States,(214) 792-9009,,,,Medical supply store,,,,,,,,32.9112096,-96.728837,,,,
All In One Medical Supply,2333 W Rochelle Rd,Irving,TX,75062,United States,(817) 868-1700,https://www.ai1ms.com/,info@ai1ms.com,Valid,Medical supply store,"All About Fun Hobbies and Games was founded in Late Aug 2006 with 4 Nitro Cars, 4 starter kits, 4 cans of nitro fuel and a dream. Since then we have gone from a single booth at Traders Village to a full store in Euless. All About Fun Hobbies and Games is family owned and operated.",4,,https://www.facebook.com,https://www.x.com,,,32.8418569,-96.9756171,,,,
Alpha Omega Medical Supply,3016 S Shiloh Rd,Garland,TX,75041,United States,(214) 227-4353,http://alphaomegamedicalsupply.com/,alphaomegamedical@gmail.com,Valid,Medical supply store,Alpha - Omega  Medical Supply,,,https://www.facebook.com,https://www.x.com,https://www.instagram.com,https://www.youtube.com,32.8794637,-96.6651879,,,,
Axis Medical Equipment & Supply,3214 Belt Line Rd Ste. 426,Farmers Branch,TX,75234,United States,(972) 889-2947,https://axismedical.com/,customerservice@axismedical.com,Valid,Medical supply store,"Axis Medical Equipment & Supply, LLC is a full-service medical device and supply provider based in North Texas, established in 2003. The company offers a wide range of medical supplies including hospital beds, mobility aids, wound care supplies, and respiratory equipment, ensuring 98 percent customer satisfaction.",7,https://www.linkedin.com/company/axis-durable-medical-equipment-llc,,,,,32.9524577,-96.8688793,Maria,Jones,Chief Financial Officer,maria.jones@axismedical.com
Beckley Medical Supply,2000 S Beckley Ave,Dallas,TX,75224,United States,(214) 946-6135,https://beckleymedicalsupply.com/,,,Medical supply store,"Searching for Medical Equipements in Dallas? Pay a visit to BeckleyMedical Supply. We have a range of medical equipment and supplies, besides rental and repair services.",,,,,,,32.7237727,-96.8226498,,,,
Bek Medical Inc,9151 Forest Ln,Dallas,TX,75243,United States,(972) 231-1129,https://www.bekmedical.com/,,,Medical supply store,"BEK Medical is a family-owned home medical supply store located in El Paso and Dallas, TX, specializing in a wide range of products including mobility aids, bathroom safety equipment, and therapeutic supplies. With over 20 years of experience, they aim to enhance the comfort and functionality of their clients homes, ensuring safety and accessibility for individuals with diverse needs.",30,https://www.linkedin.com/company/bek-medical-inc.,https://www.facebook.com/BEKMedical,https://x.com/bekmed,https://www.instagram.com/bekmedical,https://www.youtube.com/user/BEKMedical1,32.9095396,-96.7445495,Gabriel,Estrada,Operations Manager,gabriel@bekmedical.com
Biotech Medical Supply,925 N Bryan-belt Line Rd #107,Mesquite,TX,75149,United States,(972) 329-5557,https://www.bio-tech.us/,,,"Medical supply store, Medical equipment supplier",Readable Font,,,,,,,32.7766653,-96.5975217,,,,
Brosco Dba Saltom Medicals,Opp Dallas Regional Hospital & Across Post Office 925 N Bryan-belt Line Rd #105,Mesquite,TX,75149,United States,(972) 329-5555,https://saltommedicals.com/,sales@saltommedicals.com,Valid,"Medical supply store, Baby store, Medical equipment supplier","Saltom medicals has been serving homes, clinics, private practices and hospitals for more than a decade. We strive towards providing quality medical products, promptly delivered to our customers.",6,https://www.linkedin.com,https://www.facebook.com,,https://www.instagram.com,https://www.youtube.com,32.7767401,-96.5977195,,,,
Byram Healthcare,1625 W Mockingbird Ln Suite 308,Dallas,TX,75235,United States,(877) 902-9726,https://www.byramhealthcare.com/contact-us,custserv@byramhealthcare.com,Valid,Medical equipment supplier,"Byram has been a national leader in disposable medical supply delivery since 1968. Byram provides quality supplies, services and support, specializing in diabetes supplies, ostomy supplies, wound care supplies, urology supplies, incontinence supplies and enteral nutrition products.",934,https://www.linkedin.com/company/byram-healthcare,https://www.facebook.com/byramhealthcare,https://x.com/ByramHealthcare,https://www.instagram.com/byramhealthcare,,32.8226892,-96.8573098,Robert,Lande,Director Diabetes Marketing,rlande@byramhealthcare.com
Care First Home Medical,4230 Rosehill Rd Ste 1,Garland,TX,75043,United States,(972) 303-5555,,,,Medical equipment supplier,,,,,,,,32.8627069,-96.6025159,,,,
Cato Supply Inc.,750 North St. Paul Street Ste 204,Dallas,TX,75201,United States,(833) 562-2673,http://cato.supply/,,,Hospital equipment and supplies,"We are Cato. Our intelligent supply chain helps healthcare customers deliver consistent patient care by opening a world of trusted suppliers. 
Established in May 2020 to address critical shortages across the healthcare supply chain, Cato distributes and sources for entities nationwide, with specific strengths in white-glove customer service, sourcing back-order products/helping navigate shortages, offering true product optionality (exact and functionally equivalent substitute options), and is often able to leverage overstock opportunities from its distribution network to relay significant cost savings to customers.",21,https://www.linkedin.com/company/catosupply,,,,,32.7860112,-96.7997259,,,,
Ccrs Llc,10725 Plano Rd #400,Dallas,TX,75238,United States,(214) 608-5887,https://recoverwithccrs.com/,,,Medical equipment supplier,Offering patients opioid-free alternatives for early recovery after surgery (ERAS) and hospitals a DME supply chain solution.,2,,,,,,32.8961555,-96.7010335,,,,
Celltherx Corp,2929 Carlisle St #170,Dallas,TX,75204,United States,,https://www.celltherx.com/,,,Medical equipment manufacturer,"The Future of Wound Healing is Here! We are revolutionizing the 
regenerative graft markets with our proprietary Microsurfacing technology. 
Microsurfacing of regenerative tissue grafts increases the surface area at 
the graft-to-host interface and r",,,,https://celltherx.com,,,32.8027032,-96.8038516,,,,
Core 9,3635 Broadway Blvd C,Garland,TX,75043,United States,,,,,"Medical equipment supplier, Business development service, Consultant, Dental laboratory, Local medical services, Medical clinic, Medical billing service, Physician referral service, Sleep clinic",,,,,,,,32.8701278,-96.6123249,,,,
Cpap Store Dallas,3920 Rosemeade Pkwy #150,Dallas,TX,75287,United States,(945) 239-3502,https://www.cpapstoredallas.com/,info@cpapstoredallas.com,Valid,"Medical supply store, Oxygen equipment supplier, Sleep clinic","CPAP Store Dallas is an online retail store specializing in CPAP machines, masks, and a wide range of CPAP supplies and medical equipment. Their extensive product lineup includes Auto CPAP, BiPAP machines, and various types of masks alongside accessories and cleaning supplies.",4,https://www.linkedin.com/company/cpap-store-dallas,https://www.facebook.com/CPAPStoreDallas,https://www.x.com/cpapstoreusa,https://www.instagram.com/cpapstoredallas,https://www.youtube.com/channel/UCxO34QI41AUc5Cy4aiwDSaQ,33.0099987,-96.8462855,,,,
Cvi Medical,11613 N Central Expy #117,Dallas,TX,75243,United States,(214) 363-2289,https://www.cvimedical.com/,info@cvimedical.com,Unknown,"Medical equipment supplier, Disability equipment supplier, Medical supply store, Scooter rental service, Scooter repair shop, Wheelchair rental service, Wheelchair repair service, Wheelchair store",Established in 1991. CVI Medicals mission is to meet the home health care needs of our customers by providing the highest combination of quality medical equipment and supplies and customer service. CVI Medical was established in 1991 and is a locally owned and operated Dallas home medical equipment provider.,<25,,https://www.facebook.com/cvimedical/%20%20,,https://www.instagram.com/cvimedical/%20,,32.9084152,-96.7710315,Rebecca,Coughlin,Supervisor,rebecca@cvimedical.com
D & D Medical Supplies,12115 Self Plaza Dr,Dallas,TX,75218,United States,(972) 329-4800,,,,Medical equipment supplier,,,,,,,,32.8686798,-96.6705146,,,,
Dallas Wrencare,,Garland,TX,75042,United States,(972) 276-3947,,,,Medical supply store,,,,,,,,32.9174964,-96.679851,,,,
Dalton Medical Corporation,4259 Mcewen Rd,Farmers Branch,TX,75244,United States,(469) 329-5200,http://www.daltonmedical.com/,sales@daltonmedical.com,Unknown,Medical equipment supplier,"Dalton Medical is a leading supplier of durable medical equipment and supplies in the United States. Located in Dallas, TX, Dalton Medicals centralized location allows the swift delivery of products to anywhere in the 48 states. Our wholesale prices are extremely competitive to other medical wholesalers, but with an extra emphasis on support of our products as well, for added value.",32,https://www.linkedin.com/company/dalton-medical-corporation,,https://www.x.com/daltonmedicalbv,,,32.9293437,-96.8358432,,,,
Dignicap,10925 Estate Ln,Dallas,TX,75238,United States,(877) 350-2150,https://dignicap.com/,support@dignicap.com,Valid,Medical equipment manufacturer,"Dignitana is a medical device company that produces The DigniCap Scalp Cooling System, a patented and FDA cleared medical cooling device that improves quality of life for cancer patients by minimizing hair loss from chemotherapy. DigniCap provides continuous cooling with high efficacy, safety and patient comfort.",28,https://www.linkedin.com/company/dignitana-inc.,https://www.facebook.com/dignicap,https://x.com/DigniCap,https://instagram.com/DigniCap,,32.882304,-96.6961943,,,,
Galt Medical Corporation,2220 Merritt Dr #100,Garland,TX,75041,United States,(972) 271-5177,https://www.galtmedical.com/,info@galtmedical.com,Catch-all,Medical technology manufacturer,"For nearly 30 years, Galt Medical OEM has been developing and manufacturing best-in-class medical devices to optimize performance, and enhance results. Our products are used by leading healthcare providers all over the world. We specialize in disposable medical devices that promote efficient entry and accurate placement in Interventional Radiology, Interventional Cardiology, Endovascular, and bedside procedures.",58,https://www.linkedin.com/company/galt-medical,,,,,32.8911355,-96.6776788,Doug,Korfe,Vp of Operations,dkorfe@galtmedical.com
"Gatesco Medical Supply | Oxygen, Cpap, And Wheelchair Store",4041 W Wheatland Rd Suite 166,Dallas,TX,75237,United States,(214) 943-3600,https://gatescomedicalsupplies.com/,gatescomed@gmail.com,Valid,"Medical supply store, Disability equipment supplier, Hospital equipment and supplies, Medical equipment supplier, Mobility equipment supplier, Oxygen equipment supplier, Wheelchair rental service, Wheelchair store","Find quality home medical equipment and medical equipment rental in Dallas with GatesCo Medical Supplies. Comfort, care, and expert support await.",,,,,,,32.6489911,-96.8863734,,,,
Good Night Medical,10920 Switzer Ave #106,Dallas,TX,75238,United States,(877) 753-3742,https://goodnightmedical.com/,orders@goodnightmedical.com,Valid,Medical supply store,"Good Night Medical Company is a medical services provider headquartered in Columbus, Ohio. The company provides at-home sleep apnea testing, as well as home ventilation and oxygen equipment.",408,https://www.linkedin.com/company/good-night-medical,https://www.facebook.com/448985538572643,https://portal.snapworx.com/Account/SignIn,,,32.8970621,-96.7038557,Bettie,Austin,At,baustin@goodnightmedical.com
Healthline,1901 N Glenville Dr #501,Richardson,TX,75081,United States,(972) 480-0990,https://www.healthlinedme.com/locations/richardson-tx,help@healthlinedme.com,Valid,Medical supply store,"Please Follow = Healthline Medical Equipment, Inc. on LinkedIn.

You will see our logo with our Name, Tag line, and HEART. Thank you very much...as we attempt to consolidate multiple company pages created by LinkedIn automatically. :(",11,https://www.linkedin.com/company/healthline-medical-equipment,,,,,32.9735295,-96.7068528,Tonya,Ramirez,"Director, Insurance Verification",tonya.ramirez@healthlinedme.com
Holy Trinity Enterprises,4129 Azalea Ln,Garland,TX,75043,United States,(972) 926-8900,,,,Medical supply store,,,,,,,,32.8643859,-96.6236858,,,,
Hospice Source,11130 Petal St,Dallas,TX,75238,United States,(214) 572-0520,,,,Medical equipment supplier,,,,,,,,32.8821704,-96.6894547,,,,
Infusystems,12054 Forestgate Dr,Dallas,TX,75243,United States,(469) 734-5692,https://www.infusystem.com/,info@infusystem.com,Catch-all,Medical equipment supplier,"InfuSystem is a growing healthcare service provider, specializing in infusion pumps and related products and services for patients in hospitals, clinics, ambulatory surgery centers, and other major service centers. We provide direct payer rentals, pump and consumable sales, and biomedical services and repair, serving all 50 states and Canada.",367,https://www.linkedin.com/company/infusystem-inc-,,,,,32.9112107,-96.703303,Steve,Bash,"Regional VP, Oncology",steve.bash@infusystem.com
Integrated Medical Equipment,3649 Conflans Rd,Irving,TX,75061,United States,(888) 335-3335,https://www.imestat.com/,,,Medical supply store,"Integrated Medical Equipment, LLC offers specialty equipment for medically complex patient conditions. We take your patients needs seriously, which is exactly why IME operates with a service philosophy. Positive outcomes should never be compromised due to an untimely delivery of equipment.",<25,https://www.linkedin.com/company/integrated-medical-equipment-llc,,,,,32.8227819,-96.9961764,,,,
Joshua's Respiratory Care Inc,11880 Shiloh Rd,Dallas,TX,75228,United States,(469) 916-9354,https://www.joshuasrci.com/,,,Medical equipment supplier,"Joshuas Respiratory Care is a family-owned business dedicated to providing state-of-the-art respiratory care and durable medical equipment to clients in the Dallas-Fort Worth Metroplex. With over 30 years of experience, the company specializes in assisting families with Medicare, Medicaid, and private insurance claims.",16,https://www.linkedin.com/company/joshua's-respiratory-care-inc,https://www.facebook.com/pages/Joshuas-Respiratory-Care/200352640141625,,,,32.8573964,-96.6650368,,,,
Koya Medical,2332 Valdina St,Dallas,TX,75207,United States,(833) 999-5692,https://www.koyamedical.com/,orders@koyamedical.com,Catch-all,Medical technology manufacturer,"Koya Medical is a transformative healthcare company developing breakthrough treatments for venous and lymphatic diseases to increase movement, mobility and personalized care that is unavailable with traditional compression therapy. 
Koya was founded in 2018 with the mission to transform venous and lymphatic care through innovative patient-centric platforms.",150,https://www.linkedin.com/company/koyamedical,https://www.facebook.com/koyamedicalinc,,https://www.instagram.com/koyamedical,https://www.youtube.com/channel/UC1L3dVIH5LkhY6ekgyHu4kQ,32.8019317,-96.8359422,Stacey,Gregory,"Director, Commercial Operations & Revenue Cycle",stacey@koyamedical.com
Lakeshore Medical Supplies Inc,126 N International Rd B,Garland,TX,75042,United States,(214) 348-9700,https://lakeshorehcs.com/medical-supply/,in..@lakeshorehcs.com,Unknown,"Medical supply store, Doctor","All of our staff are licensed, certified, bonded, and insured professionals who share this commitment through a variety of services available 24/7or for justRead more",<25,https://www.linkedin.com/company/lakeshore-healthcare-services-inc.,https://www.facebook.com/lakeshore-healthcare-services-inc-394158777454197,https://www.x.com/lakeshorehcs,,,32.9139584,-96.6716641,,,,
Lifetech Medical Supplies,2722 W Kingsley Rd # 106,Garland,TX,75041,United States,(972) 278-8712,,,,Medical supply store,,,,,,,,32.878404,-96.6686361,,,,
Lincare Inc.,2159 S Shiloh Rd Suite 3,Garland,TX,75041,United States,(972) 840-4949,https://www.lincare.com/,info@lincare.com,Valid,"Medical equipment supplier, Home health care service","Lincare Holdings Inc. is a provider of oxygen and other respiratory therapy services to patients in the home. In 2012, The Linde Group announced it would acquire Lincare for $4.6 billion.",136,https://www.linkedin.com/company/lincare,https://www.facebook.com/lincare,https://www.x.com/lncr4f8f1b0a83,,https://www.youtube.com/c/LincareCorporate,32.8918259,-96.6661474,Brad,Ashton,,bashton@lincare.com
Majors Medical Services Inc,2601 W Mockingbird Ln #101,Dallas,TX,75235,United States,(214) 951-9710,https://majorsmedicalservice.com/,intakedept@majorsdme.com,Valid,"Medical equipment supplier, Medical supply store","We provide quality products with compassionate customer service that improves the independence, self sufficiency and mobility of people with temporary and chronic illnesses, disabilities, or impairments. We stand committed to: - Creating an innovative culture that champions patient care.",33,https://www.linkedin.com/company/majors-medical-service,https://www.facebook.com/majorsmedicalservice,,,,32.829318,-96.8438586,Brenda,Toms,Customer Care Coordinator,brenda@majorsmedicalservice.com
Maxim Medical Supplies,18800 Preston Rd Ste #306,Dallas,TX,75252,United States,(214) 299-9599,https://maximmedicalus.com/,support@maximmedicalus.com,Valid,Medical supply store,"Maxim Medical takes great pride in witnessing the progression of our homegrown, locally owned & operated company in Dallas, Tx. Supplying special quality products like lift chairs, bracings and mobility equipment to our customers anywhere when needed is our job.",1,,,,,,33.0058502,-96.7944952,,,,
Medbiox Biomedical Engineering Service,10500 Metric Dr Suite 119,Dallas,TX,75243,United States,(800) 598-6960,https://www.medequipdepot.com/,sales@medequipdepot.com,Catch-all,"Medical equipment manufacturer, Medical equipment supplier","We are a customer-centric and technology-driven medical supplies distribution facility located in Dallas, Texas, serving more than 13,000 medical facilities, schools, universities, manufacturers, government institutions, and healthcare-related businesses all across the United States.",14,https://www.linkedin.com/company/medequip-depot-inc-,https://www.facebook.com/medequipdepot,https://x.com/medequipdepot,,,32.9066922,-96.7019608,Eugenia,Snyder,"Manager, Strategic Customer & Vendor",eugenia@medequipdepot.com
Medcad,501 S Second Ave Suite A-1000,Dallas,TX,75226,United States,(214) 453-8864,https://www.medcad.com/,orders@medcad.com,Valid,"Medical equipment manufacturer, Medical technology manufacturer","MedCAD is a medical technology company built on an innovative approach to the design and production of patient-matched medical devices. Harnessing precise imaging, surgical experience, and proprietary biomedical engineering technologies, MedCAD creates personalized, patient-matched medical devices and surgical plans for cranial defects, oral surgery, CMF trauma and reconstruction surgical procedures.",50,https://www.linkedin.com/company/medcad,https://www.facebook.com/MedCAD-100695741687/,https://x.com/MedCAD_,https://instagram.com/MedCAD_,,32.7822474,-96.7728588,Brian,Buss,Executive Vice President,brian.buss@medcad.com
Medical Institutional Services Corporation,3131 Mckinney Ave #535,Dallas,TX,75204,United States,,,,,Medical supply store,,,,,,,,32.8027283,-96.8008545,,,,
Medical Plus Supplies,2600 N Stemmons Fwy,Dallas,TX,75207,United States,(713) 440-6700,https://www.mpshme.com/,anita.reddick@mpshme.com,Valid,Medical equipment supplier,"Medical Plus Supplies provides a wide range of home care services, including medical equipment and supplies, nutritional supplements, respiratory therapy, and rehabilitation technology. Their experienced team is dedicated to coordinating in-home services to meet patients medical needs.",64,https://www.linkedin.com/company/healthcare-plus-financial,https://www.facebook.com/MedicalPlus,,,,32.8082597,-96.8410512,Anita,Reddick,Vice President,anita.reddick@mpshme.com
Medicos,1910 Silver St,Garland,TX,75042,United States,(972) 494-3334,https://www.medicostx.com/,info@medicostx.com,Valid,"Medical equipment supplier, Orthopedic supplies store, Medical supply store","Move Better. Live Better.
At Medicos, weâre on a mission to transform lives by improving body mobility. Backed by compassionate care, expert insurance support, and a dedicated sales team, we make the process simpleâso you can focus on feeling your best.",0,https://linkedin.com/company/19210537/admin/feed/posts,https://www.facebook.com/medicostx,https://medicostx.com,https://www.instagram.com/medicostx,https://www.youtube.com/@MedicosTX,32.9098943,-96.6574347,Tim,Williams,President,twilliams@medicostx.com
Medpoint Medical Supplies,9535 Forest Ln #231,Dallas,TX,75243,United States,(972) 861-5085,,,,Medical supply store,,,,,,,,32.9112048,-96.7292301,,,,
Microscope & Microtome Services,1935 W State St,Garland,TX,75042,United States,(972) 272-5200,https://mmserviceco.com/,jandy@mmserviceco.com,Valid,Medical supply store,Microscope and Microtome Service Company | Microscope and Histology Instrumentation Service,,,https://facebook.com,https://x.com,,,32.9105102,-96.6569801,,,,
Mr. Biomed Tech Services,555 N 5th St #109,Garland,TX,75040,United States,(469) 767-8853,https://mrbiomedtechservices.com/,info@mbmts.com,Valid,"Medical equipment supplier, Hospital equipment and supplies, Laboratory equipment supplier, Medical supply store","In December 2014, MedRad Medical and Mr. Biomed Tech Services (MMBM) joined forces in the Medical Equipment field, both companies in collaboration focus on Sales of new and used medical equipment, Disposition services for retired medical equipment and Repair & Rental services to medical facilities and home care providers.",13,https://www.linkedin.com/company/mr-biomed-tech-pt-medical,https://www.facebook.com/Mr.BioMed,,https://www.instagram.com/mr.biomedtechservices,,32.9192174,-96.6366424,,,,
One Source Medical Solutions Inc,1523 Prudential Dr,Dallas,TX,75235,United States,(214) 421-7000,http://www.onesourcemedical.com/,sales@onesourcemedical.com,Unknown,"Medical supply store, Diabetes equipment supplier, Surgical supply store","Established in 2003. Headquartered in Dallas, Texas we are a locally owned and operated business. One Source Medical Solutions, Inc. is a full service Medical Equipment and Supplies Company. As an innovative company, One Source Medical Solutions, Inc.",7,https://www.linkedin.com/company/one-source-medical-inc,https://www.facebook.com/onesourcemedical,https://www.x.com/onesourcedme,,,32.82439,-96.8602019,Jennifer,Wilson,"General Manager, Chief Executive Officer",jwilson@onesourcemedical.com
Osseus Fusion Systems,1931 Greenville Ave Suite 200,Dallas,TX,75206,United States,(888) 330-5960,https://www.osseus.com/,info@osseus.com,Catch-all,"Manufacturer, Medical equipment supplier","Osseus is a pioneering medical device firm focused on developing advanced technology products for the minimally invasive spine surgery theatre. Our teams of forward-thinking surgeons, bright-minded engineers and visionary product managers design systems aimed at enhancing patient outcomes and changing healthcare for the better.",12,https://www.linkedin.com/company/osseus-fusion-systems,https://www.facebook.com/osseusfusionsystems,https://x.com/osseusfs,https://www.instagram.com/osseusfusionsystems,,32.8144889,-96.7707009,Chase,Tipping,Director of Operations,ctipping@osseus.com
Paramount Dme Supplies,2351 W Northwest Hwy,Dallas,TX,75220,United States,(800) 586-6231,,,,Medical supply store,,,,,,,,32.861195,-96.8854514,,,,
Peak Medical Resources - Dallas,3201 Skylane Dr Apt 102,Carrollton,TX,75006,United States,(877) 761-1959,https://peakmedicalresources.com/location/dallas,info@peakmedicalresources.com,Valid,Medical equipment supplier,"Peak Medical Resources, LLCTexas based company providing medical equipment solutions for hospitals, clinics, sugery centers, dealers, distributors ,ems companies, infusion companiesRental, Sales, Lease, and Trade-In/Purchase Options for all types of medical devicesToll Free 1.",12,https://www.linkedin.com/company/peak-medical-resources-llc,https://www.facebook.com/Peak-Medical-Resources-LLC-202034746500865,,,,32.9789171,-96.8490522,John,Koch,Business Development/branch Manager,johnk@peakmedicalresources.com
Performance Medical Products,11880 Shiloh Rd,Dallas,TX,75228,United States,(469) 916-3358,https://performancemedinc.com/,,,Medical supply store,Performance Medical Products is a family-owned and operated business specializing in providing a wide variety of quality medical supplies. They prioritize excellent service and customer care while ensuring that products are readily available for nationwide shipping.,6,https://www.linkedin.com/company/performance-dme-and-medical-supply-alliance-dme-and-medical,,,,,32.8575263,-96.6650655,,,,
Performance Medical Products,1935 W State St #107,Garland,TX,75042,United States,(214) 703-9886,,,,"Medical supply store, Manufacturer",,,,,,,,32.910492,-96.6569432,,,,
Perimeter Medical Imaging Ai,8585 N Stemmons Fwy #106n,Dallas,TX,75247,United States,(888) 988-7465,https://perimetermed.com/,careers@perimetermed.com,Valid,"Medical equipment manufacturer, Medical technology manufacturer","Perimeter Medical Imaging AI is a pioneering medical technology company driven to transform cancer surgery with advanced imaging tools. 
We canât imagine how frustrating it is for surgeons to do everything they can and still have to make the âdreaded callâ to the patient.",55,https://www.linkedin.com/company/perimeter-medical-imaging,https://www.facebook.com/PerimeterMedicalImagingAI,https://x.com/PerimeterMed,https://www.instagram.com/perimetermed_ai,,32.8302896,-96.8749457,Luke,Hambrick,Operations Specialist,lhambrick@perimetermed.com
Phc Associate Inc,11601 Plano Rd #107,Dallas,TX,75243,United States,(214) 265-7802,,,,Medical supply store,,,,,,,,32.9061085,-96.7009917,,,,
Physicians Choice Medical Equipment,2614 Industrial Ln,Garland,TX,75041,United States,(214) 328-0019,http://www.physicianschoice.net/,,,Medical supply store,"Healthy Supplements From Nature Our Top 3 Products Make them part of your daily health routine Want To Keep Up On The Latest Info and Offers Sign up for our free newsletter, catalog and special offers! Sign Up Highest Quality Productscts These are a",,,,,,,32.8857701,-96.6754227,,,,
Precision Medical Products,2140 Hutton Dr,Carrollton,TX,75006,United States,(888) 963-6265,https://www.pmpmed.com/,info@pmpmed.com,Valid,Medical technology manufacturer,"Precision Medical Products specializes in mobile DVT prevention and recovery solutions, offering innovative products designed for both acute care settings and patient use at home. Their award-winning devices, such as the Circul8 and VenaOne, aim to enhance patient mobility, compliance, and safety while reducing the risks associated with traditional tethered devices.",55,https://www.linkedin.com/company/precision-medical-products,https://www.facebook.com/pmpmed,https://www.x.com/precision_news,https://www.instagram.com/pmpmed,https://www.youtube.com/channel/UCZzzUDXL3OzudsbT9atFkgQ,32.9339354,-96.9157046,Jenae,Mannie,"Vice President, Billing Operations",jenae@pmpmed.com
"Pt Medical Technologies, Inc",2112 Regency Dr,Irving,TX,75062,United States,(469) 578-8200,https://ptmedicaltechnologies.com/,info@ptmedicaltechnologies.com,Valid,Medical equipment supplier,"PT Medical Technologies specializes in the purchase, sale, and trade of both new and pre-owned medical equipment. Based in Dallas, Texas, the company provides disposition services for retired medical assets, catering to hospitals, surgery centers, and doctors offices nationwide.",6,https://www.linkedin.com/company/pt-medical-technologies-inc,https://www.facebook.com/ptmedicaltech.biomed,https://x.com/ptmedical9906,,,32.8360098,-96.895034,Saima,Iftikhar,Business Development Manager | Ms Biology,saima@ptmedicaltechnologies.com
Red Star Dme,1855 Wall St B Suite C,Garland,TX,75041,United States,(866) 574-2536,https://www.redstardme.com/,,,Medical equipment supplier,,,,,,,,32.873638,-96.6576072,,,,
Rehab Medical Of Dallas,12088 Forestgate Dr,Dallas,TX,75243,United States,(469) 802-0771,https://www.rehabmedical.com/,supply@rehabmedical.com,Catch-all,Medical equipment supplier,"Rehab Medical has a dedicated Service Department that is staffed from 7 am  7 pm Eastern Time with an after-hours call center ready to help when needed. Most of our patients rely on their rehab equipment to help them throughout their daily routine and when it isnt working, Rehab Medical understands how critical this can be.",364,https://www.linkedin.com/company/rehab-medical,https://www.facebook.com/rehabmedicalinc,,,,32.9109865,-96.7030117,Alisa,Adams,Regional Sales Director,adams@rehabmedical.com
Rhema Medical,2550 Beckleymeade Ave #105,Dallas,TX,75237,United States,(972) 283-8380,https://www.rotech.com/,careers@rotech.com,Catch-all,"Oxygen equipment supplier, Medical equipment supplier, Medical supply store",Rotech HealthCare was founded in 1981. This company provides home medical equipment and related products.,"3,668",https://www.linkedin.com/company/rotech-healthcare,https://www.facebook.com/RotechHealthcareInc,https://www.x.com/rotech,http://www.instagram.com/rotechhealthcare,,32.6397182,-96.8616668,Grant,Brunken,Market Ops Manager Dfw Area at Rotech,grant.brunken@rotech.com
Rsq Medical Equipment,4120 Main St,Dallas,TX,75226,United States,(972) 202-3497,https://rsqme.net/,deena@rsqme.net,Unknown,Medical equipment supplier,"RSQ Medical Equipment is a woman and veteran-owned small durable medical equipment business, established in 2015. They specialize in providing quality maternity solutions including insurance-covered breast pumps, pregnancy support items, and postpartum care products.",7,https://www.linkedin.com/company/rsq-medical-equipment-llc,https://www.facebook.com/RSQ-Medical-Equipment-110576630747809,,,,32.7889016,-96.7698533,Deena,Killingsworth,Owner,deena@rsqme.net
Scooters & Medical Supply,,Dallas,TX,75218,United States,,,,,Medical supply store,,,,,,,,32.8688637,-96.6705054,,,,
Security Brands Inc.,2210 Executive Dr,Garland,TX,75041,United States,(972) 474-6390,https://www.securitybrandsinc.com/,info@securitybrandsinc.com,Valid,Manufacturer,"Security Brands, Inc. creates and manufactures the worldâs most innovative and easy-to-use perimeter access control systems and security products.",17,https://www.linkedin.com/company/security-brands-inc,,,,https://www.youtube.com/channel/UCrNcZ_LqrsBjLZ0-xU-eULw,32.8906934,-96.6809404,Jamison,Carr,Chief Operating Officer,jcarr@securitybrandsinc.com
Shalem Medical Supplies,12068 Forestgate Dr,Dallas,TX,75243,United States,(972) 222-9263,,,,Medical supply store,,,,,,,,32.9122144,-96.7041469,,,,
Slr Medical Consulting,1727 E Levee St,Dallas,TX,75207,United States,(469) 940-6959,https://www.slrmedicalconsulting.com/,info@slrmedicalconsulting.com,Valid,Medical equipment supplier,"SLR Medical Consulting is partnered with some of the top leading biotechnology pioneer manufactures to provide cutting edge medical devices and regenerative medicine to physicians, patients and industry distributors. 
SLR Medical Consulting offers a wide variety of spine, orthopedic, and pain management products.",10,https://www.linkedin.com/company/slr-medical-consulting,https://www.facebook.com/slrmedicalconsulting,https://x.com/SLR_Medical,https://www.instagram.com/slr_med,,32.790125,-96.8261186,Shane,Binding,Gulf Coast Area Director,shane@slrmedicalconsulting.com
"Southwestern Medical Reps., Inc",10920 Switzer Ave,Dallas,TX,75238,United States,(469) 441-4621,https://www.swmedreps.com/,amatthews@swmedreps.com,Catch-all,Medical equipment manufacturer,"Southwestern Medical Reps is an Independent Representative Group for 18 different medical manufacturers and distributors. Our group covers Texas, Oklahoma, Arkansas, Louisiana, and Mississippi. Our main specialization is in the rehab products market. We are dedicated to helping anyone find the product that best meets their needs.",13,https://www.linkedin.com/company/southwestern-medical-reps,https://www.facebook.com/swmedreps,,https://www.instagram.com/swmedicalreps,,32.8970554,-96.7038751,Kylin,"Fleischmann, Atp",Assistive Technology Professional,kylin@swmedreps.com
Strukmyer Labs,1801 Big Town Blvd Suite 800,Mesquite,TX,75149,United States,(214) 275-9595,https://strukmyer.com/,sales@strukmyer.com,Valid,Medical equipment manufacturer,"Strukmyer is a cutting edge medical manufacturing company exclusively dealing in contract manufacturing of Converting (Primary, Secondary & Advance Wound Dressings) Compounding (liquids, powders, creams & Gels) & Collagen (medical, surgical & dental).",40,https://www.linkedin.com/company/strukmyer-medical,,https://x.com/Strukmyer_x,https://www.instagram.com/strukmyer,https://www.youtube.com/@Strukmyer,32.7896797,-96.6698898,Dennis,Armstrong,General Manager for Strukmyer Medical,darmstrong@strukmyer.com
Strukmyer Medical,1801 Big Town Blvd,Mesquite,TX,75149,United States,(214) 275-9595,https://strukmyer.com/,sales@strukmyer.com,Valid,"Medical equipment manufacturer, Manufacturer","Strukmyer is a cutting edge medical manufacturing company exclusively dealing in contract manufacturing of Converting (Primary, Secondary & Advance Wound Dressings) Compounding (liquids, powders, creams & Gels) & Collagen (medical, surgical & dental).",40,https://www.linkedin.com/company/strukmyer-medical,,https://x.com/Strukmyer_x,https://www.instagram.com/strukmyer,https://www.youtube.com/@Strukmyer,32.7898081,-96.6688767,Dennis,Armstrong,General Manager for Strukmyer Medical,darmstrong@strukmyer.com
"Texas Home Medical, Inc.",5720 Lyndon B Johnson Fwy # 150,Dallas,TX,75240,United States,(214) 824-3688,https://www.texashomemedical.com/,info@texashomemedical.com,Catch-all,Medical equipment supplier,"Texas Home Medical is a Home Respiratory Company located at 110 Commercial Circle Suite #B Conroe, Texas, United States.",22,https://www.linkedin.com/company/texas-home-medical,,,,,32.923592,-96.8090276,Jason,Hall,,jhall@texashomemedical.com
Texas Star Dme,1855 Wall St B,Garland,TX,75041,United States,(972) 222-9263,https://www.txstardme.com/,,,Medical equipment supplier,"At Texas Star DME, we believe that having the right medical equipment can make all the difference in patient care. Thats why we offer a simple and easy-to-use durable medical equipment (DME) solution for your hospice needs, so you can focus on what matters mostâproviding compassionate care for your patients.",7,https://www.linkedin.com/company/texas-star-dme,https://www.facebook.com/texasstardme,,https://www.instagram.com/texas_star_dme,,32.8736083,-96.6577135,,,,
Top Source Medical Supplies,9550 Forest Ln,Dallas,TX,75243,United States,(214) 340-1112,,,,Medical equipment supplier,,,,,,,,32.9086407,-96.7281172,,,,
"Uef Consultants, Inc.",325 North St. Paul Street,Dallas,TX,75201,United States,(346) 312-0497,https://uefconsultants.com/,,,Medical technology manufacturer,"Discover UEF Consultants, Inc., your trusted partner in the Medical and Healthcare Services industry. Explore our comprehensive services and solutions on our homepage.",,,,,,,32.7833749,-96.7973409,,,,
Universalmed Supply,1329 W Walnut Hill Ln Suite 100,Irving,TX,75038,United States,(972) 228-1820,https://universalmedsupply.com/,info@universalmedsupply.com,Valid,"Medical equipment supplier, Medical supply store, Mobility equipment supplier, Wheelchair repair service, Wheelchair store","UniversalMed Supply is a trusted provider of home medical equipment and supplies, specializing in power wheelchairs, manual wheelchairs, tracheostomy care, urology incontinence, sleep therapy, and respiratory care. The company assists patients in qualifying for their equipment through Medicare, Medicaid, or private insurance, ensuring a smooth and timely process.",104,https://www.linkedin.com/company/universalmed-supply---dusara-corporation-affiliate,https://www.facebook.com/UniversalMedSupply,https://www.x.com/universalmedsup,,,32.8856279,-96.9717355,Justin,Norris,,justin@universalmedsupply.com
Ves International,11050 Plano Rd,Dallas,TX,75238,United States,(214) 343-3786,http://www.vesi.com/,leasing@vesi.com,Catch-all,Medical supply store,"Ves International Texas Inc is a company that operates in the Vitamins, Supplements & Health Stores industry. It employs 10to19 people and has 5Mto10M of revenue. The company is headquartered in Dallas, Texas.",11,https://www.linkedin.com/company/ves-international-texas-inc-,,,,,32.8993395,-96.7001608,Tammy,Hart,Purchasing Assistant,tammy@vesi.com
Veteran Medical Supply Group,325 North St. Paul Street Suite 3100-1612,Dallas,TX,75201,United States,(972) 838-6330,https://www.veteranmedicalsupplygroup.com/,sales@vetmedsg.com,Valid,Medical equipment supplier,Veteran Medical Supply Group provides Physical Therapy and Occupational Therapy students and clinicians with the tools they need to provide the best care.,,,,,,,32.7833749,-96.7973409,,,,
"Victor Shoreline, Llc",3106 Commerce St,Dallas,TX,75226,United States,(800) 545-1130,,,,Medical equipment supplier,,,,,,,,32.7839325,-96.7781407,,,,
"Virashield, Llc",100 Crescent Ct Suite 700,Dallas,TX,75201,United States,(214) 459-2763,https://www.virashield.me/,info@virashield.me,Valid,"Medical supply store, Medical equipment supplier","ViraShield LLC specializes in providing personal protective equipment (PPE), including disinfecting wet wipes and face masks, designed to keep families safe. They offer a convenient subscription model for bulk purchasing, allowing clients to save time and money while ensuring access to high-quality products.",14,https://www.linkedin.com/company/vira-shield-me,https://www.facebook.com/ViraShield.Me,,https://www.instagram.com/virashield.me,,32.7939118,-96.803308,,,,
Vitacare Inc.,930 W Commerce St,Dallas,TX,75208,United States,(214) 752-5900,,,,"Medical equipment manufacturer, Medical equipment supplier, Medical supply store, Mobility equipment supplier, Nutritionist, Oxygen equipment supplier, Repair service, Wheelchair repair service, Wheelchair store",,,,,,,,32.7728744,-96.8374746,,,,
Whole Medical Supplies,7920 Belt Line Rd Suite 830,Dallas,TX,75254,United States,(469) 251-5555,,,,"Medical supply store, Dental supply store, Medical equipment supplier, Safety equipment supplier",,,,,,,,32.9496875,-96.7705628,,,,
World Ppe Solutions,411 N Akard St #420,Dallas,TX,75201,United States,(214) 730-5903,,,,Medical equipment supplier,,,,,,,,32.7831807,-96.8006214,,,,
1st Respond Medical Supply Inc,1100 Business Pkwy,Richardson,TX,75081,United States,,,,,Health & medical,,,,,,,,32.9394836,-96.7376785,,,,
"Abc Home Medical Supply, Inc.",1720 N Greenville Ave,Richardson,TX,75081,United States,(972) 619-2892,https://www.abc-med.com/,hr@abc-med.com,Valid,Health & medical,"ABC Medical is a national leader in providing urological and other medical supplies, delivered directly to customers&s; homes. ABC Medical is a Different Kind of DME, offering an unmatched combination of personalized service, quality medical supplies, education and outreach to its customers.",297,https://www.linkedin.com/company/myabcmedical,https://www.facebook.com/myabcmedical,https://www.x.com/myabcmedical,http://www.instagram.com/myabcmedical,,32.9710808,-96.7160034,Robert,Stevenson,,robert@abc-med.com
Abundant Life Medical Equipment And Supply,949 W Kearney St,Mesquite,TX,75149,United States,(972) 216-5900,https://www.abundantlifemedical.com/,jacob@abundantlifemedical.com,Valid,Health & medical,"Abundant Life Medical Equipment and Supply specializes in providing a wide range of health and medical supplies, including bathroom assists, mobility aids, and personal care products. Established in 2005, the company is dedicated to helping clients live an abundant life by offering high-quality medical equipment tailored to individual needs.",10,https://www.linkedin.com/company/cc-medical-clinic-sc,https://www.facebook.com/abundantlifemedical,,,,32.7712021,-96.6114426,Jacob,Puthenpurackal,Manager,jacob@abundantlifemedical.com
Acg Medical Supply - Rowlett Showroom,3502 Lakeview Pkwy,Rowlett,TX,75088,United States,(972) 463-0737,https://acgmedical.com/,info@acgmedical.com,Unknown,Health & medical,"ACG Medical Supply is a Rowlett, TX company serving the DallasFort Worth area for home medical equipment and supplies. ACG provides mobility solutions such as electric scooters, power wheelchairs, bariatric equipment, bathroom equipment, orthopedic supports, hospital beds, lifts and ramps, nebulizers, power lift chairs, and compression wear.",4,https://www.linkedin.com/company/acg-medical-supply-inc,https://www.facebook.com/ACGMedicalSupply,https://x.com/ACGMedicalsupp,https://www.instagram.com/acgmedicalsupply,http://www.youtube.com/user/ACGMedicalSupply,32.9062538,-96.5680389,David,Gampher,BUSINESS OWNER,david@acgmedical.com
Aerocare Home Medical Equipment,1901 N Glenville Dr,Richardson,TX,75081,United States,,,,,Health & medical,,,,,,,,32.9734802,-96.7068558,,,,
Affordable Medical Supplies,2709 W 15th St,Plano,TX,75075,United States,(844) 963-2999,https://www.amednow.com/,sales@amednow.com,Catch-all,Health & medical,Affordable Medical Supplies is a family owned store that has proudly served the Dallas metroplex for over 15 years. Our goal is to assist our clients in finding the best medical supplies that suit their needs. Our team here at Affordable Medical Supplies is comprised of some of the finest customer service specialist who are willing to help.,11,https://www.linkedin.com/company/affordablemedicalsupplies,https://www.facebook.com/AffordableMedSupply,,https://www.instagram.com/amednow,,33.0197334,-96.7473679,,,,
Amicable Medical Supplies & Equipment,1601 Osprey Dr,Desoto,TX,75115,United States,,,,,Health & medical,,,,,,,,32.6208687,-96.8502655,,,,
Array Medical,3440 Sojourn Dr,Carrollton,TX,75006,United States,(469) 758-8016,https://www.arraymedical.com/,,,Health & medical,"Expert Suppliers â Here to Serve You

At Array Medical, we supply high-quality preowned cosmetic devices at competitive pricing to physicians and professionals throughout the world. With nearly two decades of industry experience, the cornerstone of our business has been maintaining high-trust relationships with our loyal customers.",8,https://www.linkedin.com/company/arraymedical,https://www.facebook.com/arraymedical,https://x.com/arraymed,,,32.9825058,-96.8405228,,,,
Aspen Imaging Healthcare,801 Jupiter Rd,Plano,TX,75074,United States,(214) 257-0113,https://aspen-imaging.com/,,,Health & medical,"Aspenstate is a Texas-based Original Equipment Manufacturer (OEM) providing complete imaging solutions for x-ray distributors and custom designed, private-labeled solutions for OEMs across the Americas. Founded in 2015, Aspenstate has become one of the fastest growing Medical Imaging companies with offices in the United States, Canada and Mexico.",11,https://www.linkedin.com/company/aspenimaging,https://www.facebook.com/aspenimgainghealthcare,,https://www.instagram.com/aspen.imaging_healthcare,https://www.youtube.com/@AspenImagingHealthcare-AI,33.0087013,-96.6830826,,,,
Axis Medical,5550 Lyndon B Johnson Fwy,Dallas,TX,75240,United States,(972) 889-2947,https://axismedical.com/,customerservice@axismedical.com,Valid,Health & medical,"Axis Medical Equipment & Supply, LLC is a full-service medical device and supply provider based in North Texas, established in 2003. The company offers a wide range of medical supplies including hospital beds, mobility aids, wound care supplies, and respiratory equipment, ensuring 98 percent customer satisfaction.",7,https://www.linkedin.com/company/axis-durable-medical-equipment-llc,,,,,32.9251251,-96.8131943,Maria,Jones,Chief Financial Officer,maria.jones@axismedical.com
Carter Medical Equipment & Supplies,205 E Camp Wisdom Rd,Duncanville,TX,75116,United States,(469) 934-8530,https://cartermedicalequipment.com/,,,Health & medical,"Shop Carter Medical Equipment for diabetic shoes, breast pumps, and more. Your trusted medical supplier for high-quality health products in Duncanville.",,,,,,,32.6629982,-96.904686,,,,
Delasco,4001 E Plano Pkwy,Plano,TX,75074,United States,(800) 831-6273,https://www.delasco.com/,questions@delasco.com,Valid,Health & medical,"Founded in 1980 by a dermatologist for dermatologists, Delasco is a leading manufacturer and distributor of dermatology supplies and equipment. Today, more than 7,000 dermatology care providers trust Delasco to provide the supplies they need to achieve optimal patient outcomes.",30,https://www.linkedin.com/company/delasco,https://www.facebook.com/delascoderm,https://www.x.com/delasco_derm,https://www.instagram.com/delascoderm,https://www.youtube.com/user/DelascoVideo,33.0100784,-96.6567612,Megan,Henken,Vice President of Product Management,mhenken@delasco.com
Dentlight Inc,1825 Summit Ave,Plano,TX,75074,United States,(972) 889-8857,https://dentlight.com/,email@dentlight.com,Unknown,Health & medical,"DentLight is a dental device company focused in the field of advanced optoelectronic equipment. We design, develop, and manufacture dental operation, detection and treatment devices used in dental offices. Our mission is to improve the efficiency, effectiveness, and profitability of dental practices.",1,https://www.linkedin.com/company/dentlight-inc,https://www.facebook.com/DentLightInc,,https://www.instagram.com/dentlight_inc,https://www.youtube.com/@DENTLIGHTINC,33.0106621,-96.6857605,Richard,Liu,Owner,rliu@dentlight.com
Eagle Medical Equipment & Supplies Inc,9550 Skillman St,Dallas,TX,75243,United States,(214) 342-6100,,,,Health & medical,,,,,,,,32.9055405,-96.7097321,,,,
Gpc Medical Limited,6060 N Central Expy,Dallas,TX,75206,United States,(469) 296-7220,https://orthorehabaids.com/,info@orthorehabaids.com,Unknown,Health & medical,"â GPC Medical Limited is a premier manufacturer, exporter and supplier of rehabilitation products & aids in India and overseas. 
â Over the years we have transcended to become technically compliance with international standards and have worked diligently to keep our customers completely satisfied with our products.",0,https://www.linkedin.com/company/gpc-medical-ltd-,https://www.facebook.com/orthopedicaids,https://x.com/OrthoRehabAids,https://www.instagram.com/gpcmedical,https://www.youtube.com/user/gpcmedicalltd,32.8400154,-96.774765,,,,
"Home Health Medical Equipment, Llc",800 W Airport Fwy,Irving,TX,75062,United States,(972) 570-7770,,,,Health & medical,,,,,,,,32.8361359,-96.9544296,,,,
Home Medical Equipment,,Rowlett,TX,75030,United States,(972) 463-9646,,,,Health & medical,,,,,,,,32.9053307,-96.570961,,,,
Inogen,600 Shiloh Rd,Plano,TX,75074,United States,(972) 616-5500,http://inogen.com/,info@inogen.com,Catch-all,Health & medical,"Inogen, headquartered in Goleta, California, and established in 2001, is a medical technology company that develops and manufactures portable oxygen concentrators that provide supplemental long-term oxygen therapy to patients suffering from chronic respiratory conditions.",766,https://www.linkedin.com/company/inogen,https://www.facebook.com/inogen,https://www.x.com/inogenone,,,33.0052795,-96.6642303,Michael,Jacobs,It Technician,mjacobs@inogen.com
La Medical Equipment Inc,,Plano,TX,75026,United States,(972) 862-6520,,,,Health & medical,,,,,,,,33.0023994,-96.7679062,,,,
Laser Resellers,7047 Twin Hills Ave,Dallas,TX,75231,United States,(855) 452-7374,https://laserresell.com/,alan@laserresell.com,Valid,Health & medical,"We are a startup company with many years experience in the purchase and sales of cosmetic and aesthetic devices. Are goal is to become one of the largest providers of devices in our industry through honesty, integrity, and providing great products at a fair price.",5,https://www.linkedin.com/company/laser-resellers,https://www.facebook.com/laserresell,https://x.com,,https://www.youtube.com/channel/UCYbvO3smGmLGFbF6PptFOZQ,32.8753204,-96.7648468,Zac,Larson,,zac@laserresell.com
Medical Equipment & Supplies Acts,1510 Randolph St,Carrollton,TX,75006,United States,(469) 892-2264,,,,Health & medical,,,,,,,,32.94487,-96.8995972,,,,
Metro Medical Equipment,949 W Kearney St,Mesquite,TX,75149,United States,(972) 329-4400,https://www.metromedicals.net/,orders@metromedicals.net,Valid,Health & medical,Alice Hope MD Online Medical Services,,,,https://wix.com,,,32.7712097,-96.6117477,,,,
Monitor Medical,4100 W 15th St,Plano,TX,75093,United States,(972) 612-4600,https://www.monitormedical.com/,customerservice@monitormedical.com,Catch-all,Health & medical,"Monitor Medical, Inc., known as The CPAP Company, specializes in providing a wide range of CPAP and BiPAP products including devices, masks, and accessories from reputable brands like ResMed and Respironics. They offer services tailored to clients with sleep apnea, collaborating with various insurance plans such as Medicare and Aetna to make their products accessible.",55,https://www.linkedin.com/company/monitor-medical,https://www.facebook.com/thecpapcompany,https://www.x.com/thecpapco,,,33.016983,-96.770874,Karen,Bourne,Customer Service Representative,karen.bourne@monitormedical.com
Mpm Medical,1801 Big Town Blvd,Mesquite,TX,75149,United States,(972) 893-4090,https://mpmmed.com/,info@mpmmed.com,Valid,Health & medical,"Since its inception in 1992, MPM Medical has been dedicated to the development and distribution of Medical Products that Matterâ¢.
With a focus on innovation in the advanced wound care industry, we collaborate with clinicians and surgeons to pioneer new and enhanced products that significantly impact patient outcomes.",46,https://www.linkedin.com/company/mpm-medical-inc.,https://www.facebook.com/mpm-medical-inc-152930971432851,https://www.x.com/mpmmedical,,,32.7896385,-96.6699066,Dave,Hensley,,dave.hensley@mpmmed.com
National Safety Training Solutions,12225 Greenville Ave,Dallas,TX,75243,United States,(888) 757-2338,https://www.nstssafety.org/,,,Health & medical,National Safety Training Solutions is a public safety company based out of United States.,5,https://www.linkedin.com/company/national-safety-training-solutions,https://www.facebook.com/nsts.us,,,,32.9146156,-96.7457123,,,,
Pediatric Home Service,500 Industrial Dr,Richardson,TX,75081,United States,(972) 699-9511,https://www.pediatrichomeservice.com/location/richardson-tx/,questions@pediatrichomeservice.com,Valid,Health & medical,"At Pediatric Home Service (PHS), we are leaders in home healthcare, dedicated to providing comprehensive services that enable children with medical complexities to thrive at home with their families. Our offerings include Respiratory and Equipment, Infusion and Pharmacy, Home Care Nursing, Feeding Support, and more, all aligned with our vision: To make a difference in the life of every family we serve by taking care of the child.",709,https://www.linkedin.com/company/pediatric-home-service,https://www.facebook.com/pediatrichomeservice,https://www.x.com/phskidshomecare,,,32.9558678,-96.7112503,Cameo,Zehnder,Chief Administrative Officer,czehnder@pediatrichomeservice.com
Quest Diagnostics Walmart-quest,915 N Town East Blvd,Mesquite,TX,75150,United States,(972) 613-7950,https://questdiagnostics.com/,server@questdiagnostics.com,Valid,Health & medical,"Quest Diagnostics empowers people to take action to improve health outcomes. Derived from the worlds largest database of clinical lab results, our diagnostic insights reveal new avenues to identify and treat disease, inspire healthy behaviours and improve health care management.","55,000",https://www.linkedin.com/company/pack-health,,,,,32.8130836,-96.6099548,Rick,Bennett,Director of Application Development,rick@questdiagnostics.com
Right Medical Equipment & Supply,2844 E Ledbetter Dr,Dallas,TX,75216,United States,(214) 360-4266,,,,Health & medical,,,,,,,,32.6938972,-96.7724686,,,,
Samerica Medical Supply Company,3225 Frontage Rd,Mesquite,TX,75150,United States,(972) 270-7226,,,,Health & medical,,,,,,,,32.8142586,-96.6485901,,,,
Sicnarf Medical Equipment & Supply,10725 Plano Rd,Dallas,TX,75238,United States,(214) 342-9689,,,,Health & medical,,,,,,,,32.8961296,-96.7010956,,,,
Sleep Rehab & Tmj Treatment,3447 E Renner Rd,Plano,TX,75074,United States,(972) 496-0515,https://www.sleeprehab.com/,info@sleeprehab.com,Valid,Health & medical,"Sleep Rehab specializes in the treatment of sleep apnea, snoring, and TMJ-related pain, offering advanced diagnostic technology and personalized oral appliance therapy. Led by Dr. Fedosky, who has over 20 years of experience, the practice serves patients in Plano, TX, and beyond, focusing on providing relief and improving sleep quality.",11,,https://www.facebook.com/sleeprehab,,,https://www.youtube.com/channel/UCMOnabmiqzjEhWKD__VawIw,32.9976349,-96.6664124,Keane,Fedosky,Business Owner,kfedosky@sleeprehab.com
Star Medical Specialties,4386 Sunbelt Dr,Addison,TX,75001,United States,(972) 380-2065,https://www.star-medical.net/,info@star-medical.net,Catch-all,Health & medical,"Specializing in enteral feeding, hard-to-find formulas (Pediatric & Adult), breast pumps, and more!",25,https://www.linkedin.com/pub/star-medical-specialties/9b/6a0/815,https://www.facebook.com/starmedicalspecialties,https://x.com/starformulainc,https://www.instagram.com/starformulainc,,32.9768639,-96.8354492,Monique,Trejo,"Director, Operations",monique.trejo@star-medical.net
Synergy Medsales,2360 Campbell Creek Blvd,Richardson,TX,75082,United States,(310) 272-5824,http://www.synergymedsales.com/,info@synergymedsales.com,Valid,Health & medical,"MNML Aesthetics specializes in premium certified pre-owned aesthetic devices and lasers, offering a wide selection of laser, skincare, and body contouring equipment at competitive prices. The company provides extensive training and customer support, catering primarily to medical aesthetics practices.",347,https://www.linkedin.com/company/synergy-corp,https://facebook.com/MNMLAesthetics,https://www.minimalax.com/capture,https://www.instagram.com/mnmlmed,https://www.youtube.com/@MNMLAesthetics,32.9816742,-96.7009277,Tony,Golden,"Manager, Warehouse Logistics",tony@synergymedsales.com
"Universal Biomedical Services , Llc",9330 Lyndon B Johnson Fwy,Dallas,TX,75243,United States,(844) 424-6633,https://www.universalbiomedical.com/,support@universalbiomedical.com,Unknown,Hospital equipment & supplies,"Universal Biomedical specializes in providing high-quality medical equipment parts and services, focusing on electrical safety testing and compliance for biomedical devices. With over 30 years of industry experience, they offer a range of services including annual safety testing, line isolation monitor inspections, and thermal inspections.",3,https://www.linkedin.com/company/universal-biomedical-corp,https://www.facebook.com/universal-biomedical-llc-1491431351152653,https://www.x.com/universalbiomed,,,32.9121666,-96.7387772,,,,
Ut Southwestern Medical Center: Purchasing Department,4600 Harry Hines Blvd,Dallas,TX,75219,United States,(214) 648-6040,http://www.utsouthwestern.edu/about-us/administrative-offices/purchasing/,alumni@utsouthwestern.edu,Valid,Health & medical,"Founded in 1943, UT Southwestern Medical Center is a public academic health science center that provides biomedical research with exceptional clinical care and education. UT Southwestern Medical Center is located in Texas.","23,000",https://www.linkedin.com/school/utsw,https://www.facebook.com/utswmed,https://x.com/UTSWMedCenter,https://www.instagram.com/utswmedcenter,https://www.youtube.com/user/UTSWMed,32.8070984,-96.8301926,Elizabeth,Ward,Chief Financial Officer,elizabeth.ward@utsouthwestern.edu
Women's Health Boutique,8499 Greenville Ave,Dallas,TX,75231,United States,(214) 373-1045,https://www.mywhb.com/,info@mywhb.com,Valid,Health & medical,"Womens Health Boutique specializes in providing products and services for women facing health challenges, including mastectomy bras, breast prosthesis, compression garments, and maternity needs. They serve clients in multiple locations such as Tyler, Longview, Dallas, and Plano, offering both in-store and online shopping options.",11,,https://www.facebook.com/womenshealthboutique,https://x.com/WHBgirls,,,32.8937874,-96.7546234,Sharon,Wilson,Chief Operating Officer,sharon@mywhb.com
Xmed Oxygen & Medical Equipment,2611 N Belt Line Rd,Sunnyvale,TX,75182,United States,(469) 983-1770,https://adapthealth.com/,customerservice@adapthealth.com,Valid,Health & medical,"AdaptHealth was founded in 2012. This company provides the manufacturing and retailing of home health care equipment and supplies. Their headquarters are located in Plymouth Meeting, Pennsylvania.","10,900",https://www.linkedin.com/company/adapthealth,https://www.facebook.com/adapthealthllc,https://portal.snapworx.com/Account/SignIn,https://www.instagram.com/adapthealthco,,32.8008766,-96.5977859,Scott,Barnhart,,scott@adapthealth.com